caddress_id,country,street,postcode,city
A01HQP4D50T1S2DY5B4FSGSW4C9,United Kingdom,Maple Wood,35914 CEDEX 9,Cardiff
A01HQP4D50WVDERBA3GYJ0X55E7,United States,Ridge Oak,99005,San Francisco
A01HQP4D50XT56CNGZHPJF4ZNX8,Switzerland,Elgar,33680,Zurich
A01HQP4D50ZS51JAB78PEFPZ3Q2,United Kingdom,Montana,439 07,London
A01HQP4D5113WK76R9RS3JA6X7F,United Kingdom,Meadow Valley,PK3 9YN,London
A01HQP4D5127YHQ9RMVXCZ1X5T6,United Kingdom,Artisan,14654 CEDEX,London
A01HQP4D514YG8QRC4PRYW5CQ8M,China,Dovetail,VO73 9SE,Beijing
A01HQP4D515JMZBTJH7JSSCDMP9,India,Cody,43-245,Pune
A01HQP4D5164VK4QPEJ046NWTFB,United Kingdom,Artisan,L52 1XJ,Newcastle upon Tyne
A01HQP4D518PB35989S90CVEAT4,United Kingdom,Wayridge,Z57 4YI,Aberdeen
A01HQP4D179TW3F633CHP57YX53,Sweden,Tomscot,1938,Link?ping
A01HQP4D17C5DDJQ51RT9NTPY1W,United Kingdom,Artisan,RO55 4RH,London
A01HQP4D17DP3F9HX862J8798J2,United Kingdom,Mallory,14449,Leeds
A01HQP4D17FMWC793H6Y4RVGFWX,United Kingdom,Upham,TD7 9DA,London
A01HQP4D17HRBTKXN6FR3KT9KEC,United Kingdom,Pawling,1422,Birmingham
A01HQP4D17JSSFQBMYKZXMQA4RG,Belgium,Ridgeway,B56 1JT,Bruges
A01HQP4D17MK1HDBKAD2C5F0M9H,United Kingdom,Harper,US21 3RL,Leeds
A01HQP4D17PYXB07HPV0W2TWHXY,United Kingdom,John Wall,35000-000,Portsmouth
A01HQP4D17Q3E3YK5DFP2H2Q5XN,United Kingdom,Shoshone,6015,Glasgow
A01HQP4D17S2AAXBZHWM1WGYR23,United Kingdom,Dunning,K33 9NF,Leeds
A01HQP4D17VG4JJKNS21MWF59G7,United Kingdom,Express,5039,Hull
A01HQP4D17X37VBQFK98130RBQD,United Kingdom,Menomonie,B51 4CY,Aberdeen
A01HQP4D17YB6546NSS04QCM975,Italy,Lien,D24 1XN,Bari
A01HQP4D180Q9MWK0TQ9Y4RD7BV,United Kingdom,Riverside,507-0901,Glasgow
A01HQP4D182QFCNRTQZX009S0SG,United Kingdom,Vermont,397325,Birmingham
A01HQP4D183SA3XWBJRVPN0W03D,United Kingdom,Merrick,X7 2KR,Reading
A01HQP4D1857T41245CK7BES2YY,Austria,1st,TF5 9DR,Klagenfurt
A01HQP4D186H04G0Y8A37FM2D9V,Portugal,Nelson,16008,Braga
A01HQP4D188CNH0DZ35AFECANQW,United Kingdom,Charing Cross,T5 5DL,London
A01HQP4D18A1TT01DY3ZJ1N3V4T,United States,Quincy,UU93 6GH,Austin
A01HQP4D18BWJ12Z858VH2FHB2G,Italy,Loeprich,5144,Genoa
A01HQP4D18D5CHNJT6JJT9MZVJB,Portugal,Superior,W72 5IB,Queluz
A01HQP4D18F1CQRFM7HPXV0C0H1,United Kingdom,Fairfield,06-320,Aberdeen
A01HQP4D18G4Q6MQEE014TC897P,United Kingdom,Dapin,30201,Portsmouth
A01HQP4D18JDFTBNDDRC0H6ZT1P,United Kingdom,Eagan,152450,Edinburgh
A01HQP4D18MFC65DXV17HW8PAES,United Kingdom,Oakridge,2320,London
A01HQP4D18NGT0ATGEK7D0TK089,China,Harbort,M10 7KM,Wuhan
A01HQP4D18Q0Y2NT5094PRFKB13,Germany,Shasta,422840,Stuttgart
A01HQP4D18RXXP9G9EVE467AFZV,United States,Kropf,737 47,Houston
A01HQP4D18T7N67PPFR5VWNFYGE,Netherlands,Paget,1045,Eindhoven
A01HQP4D18WXXSBR3SZY1XW2SHF,China,Sauthoff,JT8 4CI,Harbin
A01HQP4D2ZKHNYJ0SA5JR65MQ4W,United Kingdom,Tennyson,AI5 9FK,Reading
A01HQP4D2ZMTNCJX4YAD3ZV2GS4,United States,Lunder,DK84 1BR,Chicago
A01HQP4D2ZN4DTJG3VTMJ9DR7FF,United Kingdom,Randy,EI5 4BI,Nottingham
A01HQP4D2ZPP4XM2P0CKQDVC4KA,China,Pond,UL0 1ZL,Hong Kong
A01HQP4D2ZQ7XBWWVP4YP2QECKP,United Kingdom,Dayton,Z96 4WU,Bristol
A01HQP4D2ZS3Y5J8RGGP9H2DAEJ,United Kingdom,Sullivan,2630-015,London
A01HQP4D2ZVZ23EMCE35VD1P30Q,United Kingdom,Elmside,RU2 5QO,Southampton
A01HQP4D2ZWKPZJ5SB6337G0S13,United Kingdom,Utah,513 01,London
A01HQP4D2ZYY4365FQCY13Y0CK7,United Kingdom,Mcguire,E79 4CH,Hull
A01HQP4D2ZZ2A77EDMY24YSBCKJ,United States,Norway Maple,K23 3QD,"Washington, D.C."
A01HQP4D3018JDVJHBJRT3T65HQ,United Kingdom,Bluejay,P5 4KL,London
A01HQP4D303R8AXSSSSFAK7M5Q6,France,Corscot,06-406,Lyon
A01HQP4D305QEEW2KGFSNPEQZSY,Germany,Schlimgen,13858 CEDEX 3,Hamburg
A01HQP4D306QP5EE4JT5SZWHR5X,United Kingdom,Summit,CO06 0ZR,Leeds
A01HQP4D3085B8ZGMDBHX5JXEV7,United Kingdom,Dahle,I3 0WO,London
A01HQP4D30AFFT7EB653H6XEDVY,Austria,Melby,6311,Dornbirn
A01HQP4D30BQ9W1HJW5653MXMAB,United Kingdom,Memorial,RZ3 3KY,Newcastle upon Tyne
A01HQP4D30D18M1PQTQRM01TJSB,Norway,Bultman,1185,Sandnes
A01HQP4D30FM9HB6W93KE6HE74E,Portugal,Fieldstone,MR7 2ZP,Coimbra
A01HQP4D30GRG7JFT77G6XN29TB,United Kingdom,Center,U1 3ZE,Edinburgh
A01HQP4D30J8Y77QHCS0T75T450,United Kingdom,Sloan,589 00,Sheffield
A01HQP4D30K28DCFP54ZEY4AV8R,Scotland,Mariners Cove,357329,Paisley
A01HQP4D30MT20S850CMP0SR79N,United Kingdom,Upham,R94 8IA,Newcastle upon Tyne
A01HQP4D30N44VXAM2M7JJ1N63X,Finland,Fair Oaks,R5 1MY,Oulu
A01HQP4D30P7TEFWA4XYKHPTT2P,United States,Eastwood,3610-005,Dallas
A01HQP4D30QZSNE49XVSSSZDZ6M,Italy,Acker,64-930,Palermo
A01HQP4D30R2TTRGJ70XQFZ5B7N,United Kingdom,Manitowish,E7 3CE,Manchester
A01HQP4D30SHXGNSGC1W7C3HWSK,Belgium,Russell,H0 2RE,Aalst
A01HQP4D30T4E2TV9269S18PDTY,United States,Fremont,140074,Columbus
A01HQP4D30VQ7HQPB8KCYP2VSNT,United Kingdom,Village Green,18550-000,Coventry
A01HQP4D30WW6MT4B9XK1RHGEVK,Germany,Katie,861-3937,Munich
A01HQP4D5A7MZT0K5EXYEVB693M,Scotland,Caliangt,B19 5FP,Dunfermline
A01HQP4D5AAV1G5Z53C7NXDHJRY,United Kingdom,Caliangt,C66 2ZL,Southampton
A01HQP4D5AC9F6V493J6Y1GK0CV,Italy,Schlimgen,542 01,Catania
A01HQP4D5AEK7GA138S6KXCEN81,United States,Debs,DU07 9NY,San Jose
A01HQP4D5AGFHAQSGAKK22VXBF5,United Kingdom,Menomonie,62-085,Leeds
A01HQP4D5AJ4KCZ05690MMJM6RP,United Kingdom,Dexter,U92 0QB,Liverpool
A01HQP4D5AMJVY6CMT5VJHMBM8N,United Kingdom,Pawling,2725,Edinburgh
A01HQP4D5APSMNJ6C814PWXWB1A,Scotland,Stephen,HY9 0RS,Greenock
A01HQP4D5AR28THWX89EBXVYGF4,China,Burrows,CZ12 4IP,Shenzhen
A01HQP4D5AT1D4MM6E43A9JGGMW,Spain,Comanche,28940-000,Murcia
A01HQP4D5AWPZ50JYCP84V5JG5Y,United Kingdom,Burrows,33980,Cardiff
A01HQP4D5AXJMFSV94V00TXYQAV,United Kingdom,Nobel,ZQ82 3AQ,Edinburgh
A01HQP4D5B0KZ4GTJ7RGFNW7NB4,United Kingdom,David,JG9 1UD,London
A01HQP4D5B1EHGQWQ2JWJF5GG2C,Sweden,Packers,W6 6UY,J?nk?ping
A01HQP4D5B3QZH0S5BPHDV2BSM7,China,3rd,1049,Tianjin
A01HQP4D5B4DRT0AED1HDK7HFJD,United States,Eastwood,628389,Indianapolis
A01HQP4D5B5W2TP9MQGYX3ZMMKK,Sweden,Gale,YO5 2RR,Helsingborg
A01HQP4D5B6Y710HK4ZQ026CKVQ,United Kingdom,Green Ridge,FU50 7WY,Leicester
A01HQP4D5B8WTSEJJXG43FRXFVJ,United Kingdom,Garrison,D19 0AF,Sheffield
A01HQP4D5B9YM1ZGXXXT8Y9W4W0,United Kingdom,Vidon,JZ01 7XV,London
A01HQP4D5BAZEX5YGEKD0Q3XAC4,China,7th,45911 CEDEX 9,Xi'an
A01HQP4D5BB6RM7QKT1MBX0PA4C,Japan,Amoth,UJ7 1WU,Sapporo
A01HQP4D5BC0JGYZVCZ0DTP652T,United Kingdom,Boyd,366309,Manchester
A01HQP4D5BDXCZBBGKMN1Y27CC9,Scotland,Glacier Hill,181-0012,Aberdeen
A01HQP4D5BE7H36P0HHAH82JK6W,France,Hallows,24-200,Marseille
A01HQP4D5BFZMKTQPT8KXTSEPKM,United States,Corscot,761 31,Columbus
A01HQP4D5BG4D2AX5X75XWXVF1N,United Kingdom,Pierstorff,624582,Edinburgh
A01HQP4D5BJ808N1ABGNG9SBZET,United Kingdom,Bartelt,DY13 0JS,Aberdeen
A01HQP4D5BKFPC0MD2V1F8SGM7X,United Kingdom,Sutteridge,ZA43 5TI,Coventry
A01HQP4D5BMQ9W0CJG7H3HPWZ1T,United Kingdom,Fallview,4775-174,Birmingham
A01HQP4D5BNFZHNM599DHX2K128,United Kingdom,Superior,GU47 2RL,Leeds
A01HQP4D6CVM3C226VST3YRE5XX,United Kingdom,Elgar,D1 2CE,London
A01HQP4D6CX8YSXP8H89S0NFEFR,United States,Crest Line,1315,Charlotte
A01HQP4D6CZR7Q3G7R7M9KVD72B,Portugal,Anderson,336-0036,Queluz
A01HQP4D6D1AVWXHVC12HDP44SF,Wales,Acker,58-521,Swansea
A01HQP4D6D292A79B1QPQWD9Y19,United Kingdom,Linden,O11 5CV,Leeds
A01HQP4D6D4WNQFJR2KHEN0RGNG,United Kingdom,Green,W19 1WB,London
A01HQP4D6D6YQ0380VQZSY5XVEH,United States,Mariners Cove,H18 3FV,Chicago
A01HQP4D6D7SERB527ZCCTE1SBD,United Kingdom,Crowley,M8 7MG,Liverpool
A01HQP4D6D9Z8ACF5BEBWSJCGB7,Switzerland,Quincy,IV1 8IR,LaUnited Statesnne
A01HQP4D6DA8CXC00Y722W5F631,United Kingdom,Lyons,4695,Sheffield
A01HQP4D6DCHPDRG10DJF3PPYC3,United Kingdom,Kennedy,I98 9BB,Edinburgh
A01HQP4D6DEC466E2P37ZQKCYA7,Spain,5th,EJ35 3TJ,Madrid
A01HQP4D6DFAW9H9T6P27YN3Y4D,United Kingdom,Village Green,HU13 0QX,Reading
A01HQP4D6DHWGV7JPFX25XHAV3B,United Kingdom,Rockefeller,526-0212,Birmingham
A01HQP4D6DJ6NRKNKX6J19P4NKX,Netherlands,Anniversary,IF77 8JR,Rotterdam
A01HQP4D6DMBGERD9ZBKEZM2YMQ,United Kingdom,Hanson,76121,Reading
A01HQP4D6DPKE7YNBJ1GGP7A673,France,Cottonwood,PS62 1SR,Toulouse
A01HQP4D6DR2YJS5QXHGY14R64H,United Kingdom,Shoshone,R2 3JS,Birmingham
A01HQP4D6DTKDJ1NEYR1N6EQE3T,United Kingdom,Sugar,1715,Coventry
A01HQP4D6DW09YW8DXWD3PGWSVJ,United Kingdom,Monica,UD36 0PB,London
A01HQP4D6DX3GS6KSN8F28EDCN8,United Kingdom,Maywood,MC43 8PS,Hull
A01HQP4D6DZQK5ZYGZ9WQ8T01VH,South Korea,Sundown,PA80 5EB,Daegu
A01HQP4D6E0YRV68FY054P1K94G,United Kingdom,Eagan,N8 6DD,Cardiff
A01HQP4D6E2WM7YK62TZBWSHV0F,United Kingdom,Dorton,JA3 7KF,Glasgow
A01HQP4D6E4HRCQCB07002EJ8RK,United Kingdom,Lakewood Gardens,306824,Newcastle upon Tyne
A01HQP4D6E50X0A9S44H518QEGF,United Kingdom,Schmedeman,L0 2FX,London
A01HQP4D6E7X8S4GHCNPPZTXK1X,United Kingdom,Blaine,401 24,London
A01HQP4D6E9DZ5XGDFDB5T1RC9S,France,Nova,6216,Montpellier
A01HQP4D6EA3MKD2BNSBWDGAE4N,United Kingdom,Memorial,BH1 3QF,London
A01HQP4D6EC6BF6ZMF6H63VC3ZT,Italy,Nova,393710,Rome
A01HQP4D6EE3A8FSG5F0T3KVSE2,Italy,Bartelt,7020,Catania
A01HQP4D5CV9TK9EAEA2R0J96PW,United Kingdom,Reinke,XG91 4RT,London
A01HQP4D5CZSASSX1RM5CFCQ3W4,United Kingdom,Corry,XA72 5VP,Birmingham
A01HQP4D5D3QVBBVGXM7FQW8MTH,Japan,Bellgrove,14908 CEDEX 9,Osaka
A01HQP4D5D66ESPVW9BKP9BQ0G4,United Kingdom,Logan,NF4 0VD,Newcastle upon Tyne
A01HQP4D5D9HDBW12C0A9B0BXA4,United Kingdom,Ridgeview,K1 3TA,Reading
A01HQP4D5DCQGAXP791B4S2MDGG,United Kingdom,Upham,JL80 1GK,London
A01HQP4D5DFM4DH4ZC88R4KZ9R4,United Kingdom,Truax,P51,Portsmouth
A01HQP4D5DJRPQY4QTMPHXHGEHN,United Kingdom,Bayside,GN1 4VZ,Birmingham
A01HQP4D5DNDBHNVY5P2JK850ZR,United Kingdom,Cottonwood,676859,Sheffield
A01HQP4D5DRBHVB2EKR90AXXXA7,United Kingdom,Scott,LH65 3AB,Leeds
A01HQP4D5DVCVQG2TEP2BJR2J4Y,United Kingdom,Petterle,23250,London
A01HQP4D5DXQ36R0KA1T6BDJ1JJ,United Kingdom,Kenwood,77240,Nottingham
A01HQP4D5E0NVH9ETXGW5E3SXRX,United Kingdom,Lyons,7400-014,Reading
A01HQP4D5E3M0KP9NEYE2FVJQQN,United Kingdom,Mosinee,20174 CEDEX 1,Edinburgh
A01HQP4D5E6NQBPV3CJQR8T515T,United States,Dahle,E7 8PM,New York City
A01HQP4D5E8V2E5V2AVY3B4G82N,United States,Toban,4905-014,New York City
A01HQP4D5EAY77H0M3BVN4WZ4GQ,United Kingdom,Welch,N0 9JR,London
A01HQP4D5EBVXB8R0YWV8MXF15D,United States,Gale,LI80 3IR,"Washington, D.C."
A01HQP4D5EDC0T1VVPTWD6HJ9JS,United Kingdom,Goodland,257 44,London
A01HQP4D5EF52WAF59QRT5WZ46J,United Kingdom,Vahlen,L6 5CW,Birmingham
A01HQP4D5EGM3QH91JC47ACX0EG,United Kingdom,Myrtle,5417,Sheffield
A01HQP4D5EJKFKFDW1E7CA1C5H8,Spain,Farwell,112 45,M¨¢laga
A01HQP4D5EKX8H81M1K1F2X86RZ,United Kingdom,Miller,79130-000,Cardiff
A01HQP4D5EMV1ZV5RX1FD8T5TEE,United Kingdom,South,22610,London
A01HQP4D5ENDRBD0TKWR4BEVMRV,Germany,South,L30 0YT,Berlin
A01HQP4D5EPE21KE25A4K48YZWM,United Kingdom,Bashford,7565-017,London
A01HQP4D5EQM2SYZKN08WB0385H,Norway,Saint Paul,P8 7QV,Fredrikstad
A01HQP4D5ERAV5XNSWZZ4N5KD3P,United Kingdom,Basil,5060-016,Manchester
A01HQP4D5ES3AEG8KR400JFR5CJ,United Kingdom,Springs,601021,Edinburgh
A01HQP4D5EVX5V25NRNCEJD64E6,Portugal,Cottonwood,2815-625,Aveiro
A01HQP4D6AE78YJN8MGNQRQK6V1,United Kingdom,Sutteridge,4738,London
A01HQP4D6AJWW5C55M4N80A6890,United Kingdom,Kenwood,I84 0TL,London
A01HQP4D6ANE76K3BVEV82BGQRZ,Germany,Pawling,MB42 4MM,Hamburg
A01HQP4D6AQ84K1H5ZD7B5RC9PR,Switzerland,Hermina,98831,Geneva
A01HQP4D6ATT55282Y7KPF00XGG,Austria,Chinook,92041 CEDEX,Dornbirn
A01HQP4D6AXWC96PQPEZ86M61H6,United States,Katie,F9 6RY,New York City
A01HQP4D6B0EQX6P9CXF7WZEEDE,United Kingdom,Swallow,T96 2XS,Newcastle upon Tyne
A01HQP4D6B2HXPGK467NGR81SVC,United Kingdom,Summit,38-458,Liverpool
A01HQP4D6B525FN6QPS8S1TE0VB,Japan,Montana,O5 6PE,Kobe
A01HQP4D6B8SJMQ2NYKKRKHCQ0W,United Kingdom,Vera,PX9 0TD,Bristol
A01HQP4D6BBVWNBK5ZTTWV01Q16,Northern Ireland,Canary,T4 6UA,Newtownabbey
A01HQP4D6BDTN3M6RB8HKNRP5PH,United Kingdom,Vidon,BK9 1DD,Aberdeen
A01HQP4D6BEFZ80CYQ5PN9QZKPT,Netherlands,Toban,763008,The Hague
A01HQP4D6BGCSYFV1M6R73B6ZY7,China,Heffernan,BP75 2TR,Wuhan
A01HQP4D6BH4GGG543HK2P4TZ2R,United Kingdom,Goodland,Q17 4LO,Cardiff
A01HQP4D6BKJTGQH74BP921YAPT,Austria,Walton,B4 8OG,Klagenfurt
A01HQP4D6BNTWQQ0TGN4KB5NB4S,Sweden,4th,612730,Malm?
A01HQP4D6BPHA4HZY8KEKXKNWPW,United Kingdom,Maywood,X9 0JO,Southampton
A01HQP4D6BQ5VKEMM333NM5X9RY,United Kingdom,Golf View,Q42 1NG,London
A01HQP4D6BR3WWY3VZBC2GH160N,Austria,Anhalt,C89 8PY,Sankt P?lten
A01HQP4D6BSJ2CG9SC48DJRN5YB,United Kingdom,Glendale,48280-000,London
A01HQP4D6BTAB2C6ERYN75AE8G7,Austria,Sachs,39280-000,Wels
A01HQP4D6BV7R7YSHN2A3JVM717,France,Dwight,TZ3 6JT,Marseille
A01HQP4D6BWM27Q10FS1KZ6X6XD,United Kingdom,Veith,4410,Edinburgh
A01HQP4D6BXZ3PJ116Z8074SGMF,United Kingdom,Ridge Oak,QU2 3NQ,Glasgow
A01HQP4D6BY8K4MY7283VNBE8N3,Austria,Lawn,C00 8CT,Innsbruck
A01HQP4D6BZQYXH66NE54MH1FZ8,United Kingdom,Dawn,55120,London
A01HQP4D6C0WMXP8ZYN8R5ZRYP4,Spain,Northport,22-120,Murcia
A01HQP4D6C1GDCT3PK7N3TXDERX,United Kingdom,Oak,VL88 2HP,Portsmouth
A01HQP4D6C2S3FQ38RKV2NYP6DV,Finland,Commercial,8508,Turku
A01HQP4D6C3BX8V8M765EKD6DVD,United Kingdom,Lawn,Z0 6VW,London
A01HQP4D5Z1N2SFXHV73GQDBEMY,Switzerland,Bay,K47 9QQ,Geneva
A01HQP4D5Z4W847T8R2BAZ6JM3P,China,Eagle Crest,2525,Shanghai
A01HQP4D5Z5MR0VYT0QEPQEAJMX,United Kingdom,Bonner,HC74 2NZ,Belfast
A01HQP4D5Z7WQPQHV82GT2BXEDQ,United Kingdom,Magdeline,3530,London
A01HQP4D5Z87XTX6QWG916S27C2,Spain,Bultman,64-710,Valencia
A01HQP4D5ZABP3R8DKY3M6VG5WE,Portugal,Fulton,Q3 1PN,Funchal
A01HQP4D5ZB1JQZVMTC5VEC6G69,Austria,Elmside,573 23,Sankt P?lten
A01HQP4D5ZD75ZH6E58YX3H4B4F,United Kingdom,Stuart,8115,Leicester
A01HQP4D5ZEM1EBTBV8FN79YGVZ,United Kingdom,5th,I41 9TR,Manchester
A01HQP4D5ZGNWNRCPNXY864ZKRH,United Kingdom,Barnett,DI1 3LR,London
A01HQP4D5ZHHBZWNKX2KHPP9F1B,United Kingdom,4th,Z3 9WL,London
A01HQP4D5ZK67BW2E3X0WHMW7YE,United States,Laurel,BR59 0HX,Seattle
A01HQP4D5ZM5KR6FHQ0KZSFD6S0,Germany,Northwestern,97-212,Essen
A01HQP4D5ZPJY9HWZP10ETXPSNP,United Kingdom,Butterfield,GN9 7JS,Edinburgh
A01HQP4D5ZR12MGMD4NDJET3T0T,United Kingdom,Duke,OK91 0WV,Glasgow
A01HQP4D5ZTWKYJ7M48K4EWFV1J,United Kingdom,Almo,WQ8 6DG,Southampton
A01HQP4D5ZVFYWCWWF04T5EQW5Z,Netherlands,Sutherland,37140-000,Tilburg
A01HQP4D5ZWXV7A39CPMGNE9KA7,United Kingdom,Hallows,58-550,Sheffield
A01HQP4D5ZXGAKZX2BPXF0YV8VE,Germany,Hoepker,ZT30 6BV,Stuttgart
A01HQP4D5ZYYG84RKNF1AX9CKKB,United Kingdom,Mockingbird,2950-538,Sheffield
A01HQP4D5ZZKAM3A9H1HRR8VRJ5,Iceland,Morrow,G32 0MX,Akureyri
A01HQP4D600KZYNBETHT59HE9JK,United Kingdom,Corscot,PH0 4WM,Birmingham
A01HQP4D601CHWPYBVWCTR21B79,United Kingdom,Katie,6419,Sheffield
A01HQP4D602ERN8XFB2SM0MM26K,United Kingdom,Michigan,606093,London
A01HQP4D60355Z5Q4NKRN3CXCAF,Portugal,Killdeer,4409,Lisbon
A01HQP4D6040EJ98JKAVKED745M,United Kingdom,Warner,EB37 3KB,London
A01HQP4D6057Z2E8A8YY85WPVNQ,United Kingdom,Nancy,DA65 4WR,Reading
A01HQP4D60635Q1SRYKM4ER7QT3,United Kingdom,Corben,W30 4WP,Edinburgh
A01HQP4D60762591X0BZ0V1KNRF,United Kingdom,5th,HB0 2BK,Leeds
A01HQP4D608RRCJ9KBKMN8WME89,United Kingdom,Dwight,J9 0OR,Birmingham
A01HQP4D609K7Q1A39TQBP61WNZ,China,Eagan,75120,Nanjing
A01HQP4D4G902N56DT9NPCZZQF6,United Kingdom,Anniversary,1556,Southampton
A01HQP4D4GBBZX3581MZFE7F40T,Germany,Harper,WB00 7SH,Dortmund
A01HQP4D4GDW8HCH45JCQAENH3F,Iceland,Muir,13853 CEDEX 3,?rborg
A01HQP4D4GFXSQ7B6M5AWA9E5M8,United Kingdom,Thackeray,27197-000,Manchester
A01HQP4D4GHK69Z0HE3EWQTCDBM,United Kingdom,Drewry,WA67 5WV,Coventry
A01HQP4D4GJN7ZK0X1T6XHR13K3,Wales,Eliot,4805-550,Neath
A01HQP4D4GMP6J94W67Q9RZV1BR,United Kingdom,Northview,YJ43 5EW,Bristol
A01HQP4D4GN5B3RYZ8KES366SCT,United Kingdom,Forest Run,1771,London
A01HQP4D4GQCQNZJEXD8W1G9MZW,United Kingdom,Basil,OZ8 0RJ,Sheffield
A01HQP4D4GS5JA46HK5N34CYC8G,Northern Ireland,Havey,Z15 8KK,Craigavon
A01HQP4D4GW8M7JTCMF0DHZKSJK,France,Dexter,14000,Nantes
A01HQP4D4GYXJBZD7MS5FVSACVA,Portugal,Manley,36150,Amadora
A01HQP4D4GZF70NDP8NSTBJWDR6,Sweden,Coleman,GN75 8SF,Link?ping
A01HQP4D4H1VPPD1PKD8C6FMY8J,United Kingdom,Porter,78-314,Birmingham
A01HQP4D4H2X0FKF4ZZGC56MMD0,United Kingdom,Charing Cross,X9 1TM,London
A01HQP4D4H47KFJRB4SK6G6BRQA,China,West,OB5 5PY,Beijing
A01HQP4D4H5R4992TW5CPTD4WWX,United Kingdom,Farragut,828 25,Edinburgh
A01HQP4D4H7126TPEXY2Z95A7TF,United Kingdom,Redwing,987-0121,Manchester
A01HQP4D4H9TQ5GEDR2SD3Z7D90,United States,Dorton,T4X,Charlotte
A01HQP4D4HA14MMTXBXZ9N8J16N,United States,Armistice,7300,San Jose
A01HQP4D4HCEQFN4W70EA8BASSP,United States,Clarendon,8333,"Washington, D.C."
A01HQP4D4HD83GEB7K121WXCHDV,United Kingdom,Fordem,67609 CEDEX,Hull
A01HQP4D4HF94ZF20WV9BYR8Q76,China,Lakewood,OI1 7EU,Beijing
A01HQP4D4HH3B70ZDATEVT596CE,United Kingdom,Melvin,R03 9NT,Sheffield
A01HQP4D4HJ9YJHQPC2942TPW1S,United Kingdom,Londonderry,UF6 6WG,Reading
A01HQP4D4HMJZ42BR9M3JDZPEQJ,Ireland,Pawling,551 01,Waterford
A01HQP4D4HNTQPFTPF3WCE24R8M,United Kingdom,Eggendart,S95 0LA,Bristol
A01HQP4D4HQM2SAQN20TMY9G893,Portugal,Nobel,EQ2 1YA,Lisbon
A01HQP4D4HSE6W9PCKT6PBRMCC7,Northern Ireland,Cascade,I1 8JM,Derry
A01HQP4D4HTAH4RR9D24W0C8S1W,China,Clove,396564,Nanjing
A01HQP4D5Z5WGY399545JFMK6R0,Scotland,Cordelia,169309,Cumbernauld
A01HQP4D5Z9VMY5Q6VZFTFJFT7M,United States,Schiller,BZ63 8LC,Los Angeles
A01HQP4D5ZAC2SGW8EHKKN08F31,United Kingdom,Pearson,MW25 6NV,Coventry
A01HQP4D5ZDW7KCW0EF4HS0NWRY,Italy,Hoepker,72595,Milan
A01HQP4D5ZGG80ZBSQD620FVG2S,United Kingdom,Kim,QI4 5WU,Leicester
A01HQP4D5ZJ2F09AKTY30E62J8J,United Kingdom,Grayhawk,D42 5VM,Bristol
A01HQP4D5ZP9FPFPCG8D764R6JJ,United Kingdom,6th,6725,Bristol
A01HQP4D5ZRWZX0M00H7KKV381H,United Kingdom,Mcbride,NR37 9RY,London
A01HQP4D5ZVK24J6T88T90XXCAM,Ireland,Golden Leaf,2310,Swords
A01HQP4D5ZXD3DJM4X4QKTJ6Z3A,United Kingdom,Toban,ML49 7IJ,London
A01HQP4D5ZZCA3MFCM029PM4XYZ,United States,Drewry,TZ9 1FY,Houston
A01HQP4D601ZFH8935YH2G4NNZV,United States,Mallard,BM1 1KG,Los Angeles
A01HQP4D60331WEMMVNZAYXNMHW,United Kingdom,Green,34-432,Leeds
A01HQP4D606SVA2Y0W0XQXRF40Q,China,Kings,XR11 5XI,Hong Kong
A01HQP4D608930RB6HX2BWWTFEF,United Kingdom,Crowley,417 71,London
A01HQP4D60A3ANV6QWFRZ5NZ8AZ,Belgium,Pepper Wood,1225,Bruges
A01HQP4D60CQMBTNN266YBY3E20,Iceland,Schiller,29-100,Akranes
A01HQP4D60F64X2XCSQF2QZT56E,United Kingdom,Thierer,571,Manchester
A01HQP4D60HXFY94TP8KT575TGN,United Kingdom,Hudson,606950,Manchester
A01HQP4D60KSRN65ZMVCMXG749Z,Japan,Corben,352144,Nagoya
A01HQP4D60P8H8H0TH76EW5FTEG,Japan,Arizona,A81 1ZF,Kawasaki
A01HQP4D60RXRNDA0JAMKPF12RY,China,Beilfuss,CQ15 5NA,Shanghai
A01HQP4D60SM6RDNRR6EW1XTF9K,China,Forest Dale,YD36 8WZ,Shanghai
A01HQP4D60VAM55JBX1A6WCS3YX,United Kingdom,Manufacturers,LY20 5BF,London
A01HQP4D60X4CEG5D4P8AXWN99X,United Kingdom,Rowland,N26 7HF,Leicester
A01HQP4D60Y6FTMQX378XHCH31F,United Kingdom,Tennyson,TK38 3XW,Liverpool
A01HQP4D610MQ6F5ZJSVC0NAPJC,United Kingdom,Warbler,2006,Bristol
A01HQP4D611B24TCPXTGA68CHYH,United Kingdom,Old Shore,DQ32 0OP,London
A01HQP4D613EQH6W0NSJBRFX5VS,India,Mifflin,13020,Mumbai
A01HQP4D614RTC5G1XYXBP6PPV0,United Kingdom,Kenwood,51361 CEDEX,Cardiff
A01HQP4D616HXNP95SV07Q920AN,United Kingdom,Golden Leaf,73110,Leeds
A01HQP4D617JEQ067T88Y08N7NR,United Kingdom,Morning,RT8 0MA,Reading
A01HQP4D619H60543XR7YKDVDC6,United Kingdom,Veith,11504,Liverpool
A01HQP4D61AYFF0E0YAQJ19H9PT,Portugal,3rd,34-331,Amadora
A01HQP4D61CHW4S3RTHPM9CC8ZB,United Kingdom,Dorton,T92 3LP,Manchester
A01HQP4D61EHVZH83RPWJYKYEYP,United Kingdom,Rowland,W39 5ES,Leicester
A01HQP4D61FMQ4G0Y8NWJJY92C9,United Kingdom,Talmadge,CB39 9YW,Portsmouth
A01HQP4D61H66XGQ7MTNRVCRZZ3,Iceland,Northridge,S5 3OC,Reykjavik
A01HQP4D61JMYQ326PJMXSDTF45,United Kingdom,Green Ridge,G8 7VB,London
