saddress_id,shipment_id,country,street,city,postcode
A-YQO-52820,YQO-52820,United Kingdom,Ridgeview,London,KW10
A-RMQ-58062,RMQ-58062,United Kingdom,Victoria,London,S1 5PU
A-MZY-97101,MZY-97101,United Kingdom,Westridge,London,T7 4TB
A-DVX-48074,DVX-48074,United Kingdom,Erie,Bristol,464 01
A-OVZ-42251,OVZ-42251,Scotland,Rusk,Kilmarnock,D96 9KI
A-UPX-82874,UPX-82874,China,Pierstorff,Shanghai,FL18 1KT
A-QJM-66746,QJM-66746,United States,Havey,Dallas,471 41
A-AER-75825,AER-75825,United States,Northport,Houston,EA07 5WS
A-KUW-78655,KUW-78655,United Kingdom,Rusk,Hull,NM5 6NX
A-DZW-28249,DZW-28249,Switzerland,Fordem,St. Gallen,JQ5 4NZ
A-KHY-06895,KHY-06895,United Kingdom,Corscot,Cardiff,10140
A-WWA-79792,WWA-79792,United Kingdom,Carpenter,London,G7 8AI
A-TSC-55128,TSC-55128,United Kingdom,Di Loreto,Edinburgh,D8 5AH
A-EDH-52214,EDH-52214,United Kingdom,6th,London,CZ9 8RL
A-WRV-18235,WRV-18235,United Kingdom,Twin Pines,Portsmouth,SZ7 3WI
A-PLN-37821,PLN-37821,Iceland,4th,Reykjavik,K36
A-ZNY-61995,ZNY-61995,United Kingdom,Bayside,Manchester,11604
A-KNB-10906,KNB-10906,United Kingdom,Sommers,Leicester,34058 CEDEX 1
A-YIZ-88097,YIZ-88097,Scotland,3rd,Inverness,RT6 4DR
A-PZH-12199,PZH-12199,Portugal,Dottie,Amadora,92974 CEDEX
A-QKJ-05077,QKJ-05077,United Kingdom,Florence,Cardiff,4515
A-OLO-68598,OLO-68598,United Kingdom,Schlimgen,Leeds,Q05 0SS
A-CII-71756,CII-71756,United Kingdom,Melrose,Reading,1231
A-SJM-44248,SJM-44248,United Kingdom,Bobwhite,Liverpool,Z8 7RN
A-ZWO-63002,ZWO-63002,United Kingdom,Goodland,Leeds,TQ6 0OI
A-RGE-11387,RGE-11387,United Kingdom,Blue Bill Park,London,3776
A-LIJ-70784,LIJ-70784,India,Elmside,Mumbai,FH17 7BO
A-MGV-82071,MGV-82071,Iceland,Golf,Fjar?abygg?,H1 3BX
A-BLA-77049,BLA-77049,United Kingdom,Warner,London,CW32 2LM
A-HKC-81549,HKC-81549,United Kingdom,Basil,Bristol,BB8 2SI
A-WIQ-37638,WIQ-37638,United Kingdom,Pleasure,Liverpool,14700-000
A-ERP-50812,ERP-50812,United Kingdom,Darwin,Liverpool,Y4 9NP
A-KBO-76744,KBO-76744,China,Scofield,Hangzhou,2525
A-DTA-38295,DTA-38295,United States,Blaine,New York City,P75 0YH
A-XUM-14431,XUM-14431,China,Lyons,Shanghai,6306
A-ZLP-47495,ZLP-47495,China,Spaight,Shanghai,13599
A-WST-47759,WST-47759,United Kingdom,Texas,London,P47 4BH
A-FUE-24960,FUE-24960,United Kingdom,2nd,Leicester,10601
A-AKX-37800,AKX-37800,United States,Warrior,New York City,A4 8BJ
A-DJJ-40359,DJJ-40359,Japan,High Crossing,Kawasaki,TS5 3YN
A-FQN-61642,FQN-61642,Belgium,Jackson,Mons,RU05 1LH
A-TXB-31696,TXB-31696,Japan,Hooker,Nagoya,P0 5SI
A-ERF-40305,ERF-40305,United Kingdom,Larry,Manchester,5590
A-GZA-71961,GZA-71961,United Kingdom,3rd,Manchester,567 24
A-IPF-06013,IPF-06013,Netherlands,Merry,Eindhoven,35160-000
A-VOB-42851,VOB-42851,Iceland,Waxwing,Akranes,K5 4WX
A-SKK-01686,SKK-01686,United Kingdom,Westport,London,73028
A-YKW-03203,YKW-03203,United Kingdom,Magdeline,Southampton,XQ76 0KC
A-EGC-29314,EGC-29314,United Kingdom,Northfield,London,35513 CEDEX
A-QYL-04009,QYL-04009,Belgium,Village Green,Bruges,2840-146
A-RPL-44782,RPL-44782,United Kingdom,Swallow,Glasgow,VR5 5GW
A-HJX-04732,HJX-04732,United Kingdom,Portage,Leeds,50090
A-UXK-95873,UXK-95873,China,Schlimgen,Hong Kong,M24 1OS
A-KUP-11505,KUP-11505,United States,Mandrake,New York City,43280
A-BJZ-87355,BJZ-87355,Ireland,Hauk,Galway,CF0 5QE
A-QIG-69460,QIG-69460,China,Lakewood,Shanghai,89519
A-DRI-32632,DRI-32632,United States,Doe Crossing,Los Angeles,20249
A-VBG-11058,VBG-11058,United Kingdom,Kensington,Portsmouth,87330
A-SFE-63606,SFE-63606,Spain,Dexter,Seville,4495-103
A-IPL-88269,IPL-88269,United Kingdom,Little Fleur,London,U60 3WK
A-RSU-61760,RSU-61760,United States,Annamark,Houston,113 90
A-MIF-50316,MIF-50316,United Kingdom,Lindbergh,London,32224
A-YRZ-56124,YRZ-56124,United Kingdom,Macpherson,London,903 01
A-OUP-63969,OUP-63969,Ireland,Warner,Swords,MP10 2BU
A-LJS-06290,LJS-06290,United Kingdom,Scofield,Leeds,U1 7EN
A-LZK-52447,LZK-52447,United Kingdom,Kim,Bristol,155644
A-NVK-74090,NVK-74090,United Kingdom,Spohn,Bristol,4850-304
A-OIW-64264,OIW-64264,United Kingdom,Golf,Leicester,WH8 7QV
A-GID-45026,GID-45026,United Kingdom,Dixon,Leicester,2446
A-RDQ-51888,RDQ-51888,Belgium,Meadow Valley,Li¨¨ge,TG6 8PO
A-TOH-94422,TOH-94422,Italy,Lyons,Milan,82-550
A-NNQ-99937,NNQ-99937,Ireland,Redwing,Dundalk,42-256
A-IKI-50846,IKI-50846,United States,Beilfuss,Los Angeles,V7Y
A-ALP-05362,ALP-05362,United Kingdom,Spenser,Coventry,40041
A-RFD-71098,RFD-71098,United Kingdom,Clemons,Hull,VG1 4NH
A-OPY-64233,OPY-64233,China,Kropf,Nanjing,H53 1OX
A-BLM-91894,BLM-91894,Scotland,Ridgeview,Cumbernauld,H8 0OK
A-FAV-04660,FAV-04660,Northern Ireland,Debs,Derry,61650
A-YXW-52195,YXW-52195,United Kingdom,Schlimgen,Bristol,762538
A-LKR-14186,LKR-14186,Portugal,John Wall,Lisbon,F2 1WG
A-SDF-44750,SDF-44750,United States,Glacier Hill,New York City,88-160
A-RNK-09952,RNK-09952,United Kingdom,Red Cloud,London,PP96 7IC
A-YWW-52330,YWW-52330,United Kingdom,Menomonie,Sheffield,87505
A-IWQ-01758,IWQ-01758,United Kingdom,Merry,Reading,38610-000
A-WMX-53940,WMX-53940,Ireland,Tennyson,Waterford,VU4 0SE
A-ZYV-65424,ZYV-65424,United States,Fair Oaks,"Washington, D.C.",LK0 9JD
A-ARF-13786,ARF-13786,United Kingdom,5th,Hull,EC3 3TE
A-RNI-70591,RNI-70591,China,Becker,Beijing,SC43 0KJ
A-RLN-58184,RLN-58184,Sweden,Vahlen,Uppsala,N42 0VB
A-RCP-17106,RCP-17106,United States,Superior,San Jose,SE7 4PR
A-VYB-79487,VYB-79487,Wales,Doe Crossing,Port Talbot,A5 7OY
A-KJM-95093,KJM-95093,United Kingdom,Anhalt,Reading,24109
A-MFZ-15865,MFZ-15865,United Kingdom,Bayside,Edinburgh,VP88 3ZN
A-XTK-49280,XTK-49280,United Kingdom,Darwin,Manchester,OM6 1VE
A-IUG-84543,IUG-84543,United States,Melvin,Charlotte,SY48 9KF
A-SOW-06472,SOW-06472,China,Forster,Beijing,NV38 7KL
A-ORC-14738,ORC-14738,China,Hanover,Guangzhou,GM06 3TV
A-NGT-46053,NGT-46053,United Kingdom,International,Birmingham,743 01
A-XCX-56598,XCX-56598,United Kingdom,Hanson,London,196658
A-SGC-23944,SGC-23944,United Kingdom,4th,Manchester,U2 4MB
A-NTC-82271,NTC-82271,Sweden,Spaight,Link?ping,X24 2DX
A-GXJ-48709,GXJ-48709,United Kingdom,Tony,Leicester,311-1500
A-ZRG-63495,ZRG-63495,France,Anhalt,Nantes,7119
A-VPA-46238,VPA-46238,United Kingdom,Waubesa,London,U9 1NY
A-YAV-84542,YAV-84542,United Kingdom,Fuller,Sheffield,36200
A-LHO-05328,LHO-05328,Wales,Red Cloud,Neath,369-0137
A-MKZ-36831,MKZ-36831,United Kingdom,Jackson,Belfast,3706
A-WQZ-27159,WQZ-27159,India,Comanche,Jaipur,A75
A-HGN-36671,HGN-36671,United Kingdom,Red Cloud,Coventry,4560-832
A-UYM-25095,UYM-25095,United Kingdom,Graedel,Manchester,R47 7AI
A-JTZ-25899,JTZ-25899,Switzerland,Gerald,Biel/Bienne,F1 8JQ
A-CCL-00740,CCL-00740,Iceland,Fuller,?rborg,66-220
A-FCZ-63799,FCZ-63799,United Kingdom,Hansons,Southampton,L4 5OG
A-FAW-51424,FAW-51424,Germany,Morning,Dortmund,155007
A-ODE-50455,ODE-50455,United Kingdom,Nancy,Birmingham,O77 3EK
A-SSY-40316,SSY-40316,China,Melody,Nanjing,07-320
A-KXO-34659,KXO-34659,United Kingdom,Cambridge,Edinburgh,5425-055
A-XOW-72664,XOW-72664,United Kingdom,David,Glasgow,372 34
A-FKM-85259,FKM-85259,United Kingdom,Drewry,Southampton,NT4 3QR
A-YQR-56534,YQR-56534,Netherlands,Lillian,Utrecht,3060-629
A-LAT-08036,LAT-08036,United Kingdom,Milwaukee,London,UJ4 6BO
A-ZRM-63504,ZRM-63504,United Kingdom,Clarendon,Liverpool,37-232
A-AFM-48725,AFM-48725,United Kingdom,Utah,London,O68 0JP
A-XBI-01337,XBI-01337,United Kingdom,School,London,V95 5JI
A-QAT-07657,QAT-07657,United Kingdom,Fairview,Edinburgh,503 04
A-QWQ-83982,QWQ-83982,United Kingdom,Fisk,Southampton,13409
A-QYC-10112,QYC-10112,China,Summit,Shenzhen,U49 0PI
A-YMO-28743,YMO-28743,Germany,Autumn Leaf,Essen,GA36 6CM
A-BHD-80322,BHD-80322,United States,Northfield,Seattle,739 04
A-XEH-13611,XEH-13611,Belgium,Nelson,Brussels,Y55 9YT
A-ZSZ-67057,ZSZ-67057,United Kingdom,Kingsford,Leicester,94631 CEDEX 1
A-MFL-86943,MFL-86943,United Kingdom,Blue Bill Park,Manchester,JP61 9TH
A-SWL-33136,SWL-33136,United Kingdom,Blaine,London,195509
A-GUI-93614,GUI-93614,United Kingdom,Schurz,London,L95 5HT
A-NKC-85551,NKC-85551,Austria,Heath,Sankt P?lten,14400-000
A-OWW-24046,OWW-24046,Portugal,Spaight,Funchal,T7 8CJ
A-GAG-90322,GAG-90322,United Kingdom,Elka,Glasgow,NX11 8CI
A-VRD-08242,VRD-08242,Norway,Merry,Troms?,520-0111
A-REO-63491,REO-63491,United Kingdom,Schmedeman,Sheffield,92684 CEDEX
A-LDN-83295,LDN-83295,China,Warrior,Shanghai,XN5 3TP
A-SSQ-62799,SSQ-62799,United Kingdom,Southridge,Belfast,YA0 3UM
A-KIR-33671,KIR-33671,United Kingdom,Hudson,London,SA23 7JZ
A-BUV-98358,BUV-98358,Spain,Hayes,Valencia,366818
A-LIK-87021,LIK-87021,Switzerland,Badeau,Geneva,52150
A-IFS-92167,IFS-92167,United Kingdom,Swallow,London,84019 CEDEX 1
A-YIM-09350,YIM-09350,China,Morrow,Shanghai,YJ5 6UR
A-RFX-29943,RFX-29943,United Kingdom,Artisan,Portsmouth,2677
A-HYJ-55966,HYJ-55966,Finland,Porter,Turku,32605
A-ROA-96332,ROA-96332,United Kingdom,Hoffman,London,2808
A-UVN-73621,UVN-73621,Spain,Fulton,Murcia,86-260
A-ZKG-23440,ZKG-23440,South Korea,Weeping Birch,Gwangju,10152
A-FBC-57810,FBC-57810,United Kingdom,Stephen,Edinburgh,II0 5OC
A-BOC-00085,BOC-00085,United Kingdom,1st,Glasgow,O25 8EC
A-QJG-65032,QJG-65032,Austria,Cambridge,Innsbruck,68500-000
A-IZS-22890,IZS-22890,United States,Oneill,New York City,73800-000
A-HNL-80787,HNL-80787,Belgium,Summerview,Ghent,XE91 8LW
A-TXN-02067,TXN-02067,Italy,Ramsey,Genoa,2005
A-FVC-08427,FVC-08427,China,Huxley,Beijing,JK0 1NH
A-KXR-00462,KXR-00462,United Kingdom,Loomis,London,K91 8RM
A-MGC-06913,MGC-06913,China,Daystar,Shanghai,P1A
A-KVT-91832,KVT-91832,France,Hazelcrest,Marseille,Y0 3SM
A-KBK-53741,KBK-53741,Austria,Amoth,Wels,43656
A-TUO-44400,TUO-44400,United Kingdom,Vermont,London,11504
A-WLZ-69674,WLZ-69674,Austria,West,Sankt P?lten,2640-394
A-KSB-84452,KSB-84452,Sweden,Hoepker,Malm?,J9P
A-SHU-74025,SHU-74025,United Kingdom,Hansons,Southampton,N21 8BD
A-OJX-06185,OJX-06185,United Kingdom,Morningstar,London,50205
A-DKJ-73860,DKJ-73860,United Kingdom,Pierstorff,Birmingham,181370
A-QZW-01517,QZW-01517,United Kingdom,Westport,Edinburgh,97-565
A-XQT-02648,XQT-02648,China,Loomis,Wuhan,CR9 7ZA
A-PXD-73061,PXD-73061,United Kingdom,Mosinee,Cardiff,92337 CEDEX
A-VJG-32567,VJG-32567,Austria,Delaware,Klagenfurt,J46 1NS
A-FTU-63323,FTU-63323,United Kingdom,Independence,Sheffield,G2 6TQ
A-RBU-85152,RBU-85152,Netherlands,Garrison,The Hague,YG46 1BX
A-XVF-43095,XVF-43095,United Kingdom,Karstens,Birmingham,4207
A-NGP-01097,NGP-01097,United Kingdom,Morning,Liverpool,L67 7GC
A-QPM-56476,QPM-56476,United Kingdom,Sherman,Edinburgh,UO1 9BD
A-ZMX-81399,ZMX-81399,United Kingdom,Marcy,Aberdeen,JP70 3ZT
A-LSV-01576,LSV-01576,United Kingdom,Mandrake,Bristol,F4 8RI
A-ZLV-65190,ZLV-65190,Northern Ireland,Marcy,Newtownabbey,H24 3TL
A-IDV-64946,IDV-64946,United Kingdom,Thierer,London,20249
A-IQL-16620,IQL-16620,Japan,Farwell,Kobe,J47 1ME
A-DML-93628,DML-93628,Netherlands,Ludington,Breda,76420-000
A-HAS-64357,HAS-64357,Ireland,Monterey,Navan,M38 4RP
A-QPO-65411,QPO-65411,United Kingdom,Delaware,Liverpool,MZ48 1AE
A-YTF-04965,YTF-04965,Austria,Burning Wood,Dornbirn,J08 3BD
A-RDW-52199,RDW-52199,United States,Ilene,New York City,C96 4OO
A-AXH-21476,AXH-21476,United Kingdom,Randy,Newcastle upon Tyne,8357
A-SKJ-61914,SKJ-61914,Switzerland,Del Mar,Geneva,NE7 4KD
A-ZVG-59252,ZVG-59252,United Kingdom,Lyons,London,UF3 6GU
A-XGF-78253,XGF-78253,United Kingdom,Mosinee,London,G5J
A-RZK-11013,RZK-11013,Germany,Portage,Hamburg,31300
A-JLP-78616,JLP-78616,United Kingdom,Del Mar,London,U8 4CW
A-SXZ-86906,SXZ-86906,Portugal,Bultman,Aveiro,XZ7 4MV
A-XBQ-28470,XBQ-28470,Spain,Memorial,Bilbao,7241
A-VSF-36397,VSF-36397,United Kingdom,Butterfield,Manchester,YN2 9GC
A-YFU-19025,YFU-19025,United Kingdom,Nova,Edinburgh,30001
A-SJX-57144,SJX-57144,United Kingdom,Westerfield,London,300040
A-CID-18442,CID-18442,Norway,Birchwood,Fredrikstad,161250
A-UDP-97335,UDP-97335,United Kingdom,Butterfield,Cardiff,3378
A-QOU-55133,QOU-55133,United Kingdom,Rieder,London,TB1 5GB
A-RMJ-64576,RMJ-64576,Germany,Brown,Berlin,N2B
A-THM-00750,THM-00750,United Kingdom,Ridge Oak,Sheffield,N0 8MF
A-CTE-51943,CTE-51943,Spain,Katie,M¨¢laga,4570-308
A-GHU-85025,GHU-85025,United Kingdom,South,London,M61 1TE
A-URE-43339,URE-43339,United Kingdom,Corry,Birmingham,J90 7FK
A-TOU-22688,TOU-22688,United Kingdom,Debs,London,811 53
A-CKL-61352,CKL-61352,United States,Banding,"Washington, D.C.",186793
A-QZF-65463,QZF-65463,United States,5th,New York City,WQ09 4NR
A-WQW-52009,WQW-52009,United Kingdom,Del Sol,Reading,682574
A-EUA-00391,EUA-00391,United Kingdom,Grasskamp,Edinburgh,15600
A-QJD-79529,QJD-79529,United States,Florence,New York City,2248
A-BML-91917,BML-91917,Japan,Troy,Saitama,PR44 5KB
A-ZNA-59860,ZNA-59860,United Kingdom,Clyde Gallagher,Coventry,7000
A-XLK-23602,XLK-23602,United Kingdom,Northview,Leeds,XF36 4IH
A-WXU-92623,WXU-92623,United Kingdom,Cascade,London,102 46
A-VRR-55675,VRR-55675,United Kingdom,Sunfield,Nottingham,357637
A-GNH-00215,GNH-00215,United Kingdom,Melby,Birmingham,65715-000
A-IIZ-28489,IIZ-28489,United Kingdom,Killdeer,Sheffield,4089
A-PAI-74178,PAI-74178,Sweden,Loeprich,Malm?,RJ01 9BH
A-GJB-23307,GJB-23307,United Kingdom,Badeau,Portsmouth,398 53
A-DRV-03457,DRV-03457,United States,Eggendart,Philadelphia,SY4 9GA
A-CBI-55296,CBI-55296,United Kingdom,Barby,Newcastle upon Tyne,SO02 4UQ
A-BQE-90336,BQE-90336,United Kingdom,Homewood,Reading,67130
A-VTJ-89871,VTJ-89871,United Kingdom,Del Sol,London,431355
A-EVW-03400,EVW-03400,Japan,Schiller,Osaka,391 75
A-BTN-77510,BTN-77510,United Kingdom,Vernon,London,33982
A-FPV-21383,FPV-21383,United States,Pawling,Phoenix,U35 3NL
A-DBN-04821,DBN-04821,United Kingdom,Dapin,London,523 32
A-RMR-71399,RMR-71399,United Kingdom,Harper,Birmingham,FE91 8GA
A-RWB-58072,RWB-58072,Italy,Elmside,Catania,QA6 7EA
A-SHM-93145,SHM-93145,United Kingdom,Loeprich,London,R89 8OH
A-THT-73413,THT-73413,Italy,Basil,Rome,175038
A-ZFC-22466,ZFC-22466,United Kingdom,Riverside,Nottingham,78285
A-TFA-82905,TFA-82905,France,Vermont,Montpellier,3500
A-TKV-49782,TKV-49782,United Kingdom,Hooker,London,5152
A-MSQ-68745,MSQ-68745,United Kingdom,Acker,London,253048
A-RXD-79955,RXD-79955,China,Farmco,Xi'an,11-042
A-HSP-66132,HSP-66132,United Kingdom,Springview,Newcastle upon Tyne,UH9 4LY
A-IRR-81268,IRR-81268,United Kingdom,Trailsway,Glasgow,X1 7CY
A-VTX-04975,VTX-04975,South Korea,Fallview,Daegu,NM9 1RV
A-GMO-32903,GMO-32903,United Kingdom,Mccormick,Cardiff,QA45 6GN
A-LGF-47626,LGF-47626,United Kingdom,Summit,Birmingham,5881
A-ZQZ-36830,ZQZ-36830,United Kingdom,Hoffman,Coventry,5856
A-CSE-86350,CSE-86350,United Kingdom,Green Ridge,London,VK87 5QN
A-PIZ-49895,PIZ-49895,United Kingdom,Debra,Hull,O94 0KW
A-JMZ-49279,JMZ-49279,United Kingdom,Moland,Reading,88598-000
A-XYV-82171,XYV-82171,United States,Dahle,Columbus,OM9 3HZ
A-QZP-77777,QZP-77777,United Kingdom,Burrows,Edinburgh,YB78 3XG
A-MBA-72481,MBA-72481,United Kingdom,Darwin,Aberdeen,69485-000
A-QKF-92849,QKF-92849,France,Evergreen,Marseille,VC6 2EW
A-NEC-43945,NEC-43945,United Kingdom,Haas,Nottingham,TM42 8OU
A-FXX-91880,FXX-91880,Scotland,Mifflin,Aberdeen,40612
A-PIE-74764,PIE-74764,United Kingdom,Loftsgordon,Sheffield,UX7 7SP
A-VCE-73700,VCE-73700,United Kingdom,7th,Manchester,FZ93 5KM
A-GLF-37691,GLF-37691,United States,Riverside,Los Angeles,352174
A-YWC-19526,YWC-19526,Japan,Gerald,Sapporo,Q50 3ML
A-WKV-66631,WKV-66631,United Kingdom,Briar Crest,Sheffield,2106
A-GKF-46248,GKF-46248,United Kingdom,1st,London,C71 6AX
A-SEU-86177,SEU-86177,China,Clemons,Xi'an,71115
A-HVA-47085,HVA-47085,Germany,Lakewood Gardens,Leipzig,614513
A-NSS-06108,NSS-06108,United Kingdom,Blackbird,Leicester,G3 6SZ
A-IFJ-85317,IFJ-85317,South Korea,Havey,Daejeon,Q1 8DA
A-IRP-96502,IRP-96502,United Kingdom,Nancy,London,14740-000
A-FUD-98001,FUD-98001,Sweden,Monterey,Helsingborg,3570-014
A-GCK-16488,GCK-16488,China,Burning Wood,Tianjin,JN8 7HJ
A-MRP-79654,MRP-79654,United States,Jackson,Indianapolis,3707
A-DMT-25651,DMT-25651,United Kingdom,Bartelt,London,7213
A-LCT-86449,LCT-86449,Sweden,Cody,J?nk?ping,34280
A-BRW-14033,BRW-14033,United Kingdom,Oxford,Cardiff,43-474
A-ALJ-55175,ALJ-55175,United Kingdom,Morningstar,Edinburgh,MA0 1QB
A-PKV-69417,PKV-69417,Spain,Fairfield,Murcia,ZA5 9LD
A-FQB-68445,FQB-68445,United Kingdom,Sutteridge,London,A96 9VU
A-VXA-99220,VXA-99220,China,Dayton,Shenzhen,SG76 6MR
A-NKR-84978,NKR-84978,Scotland,Hollow Ridge,Greenock,37-550
A-GGN-36996,GGN-36996,China,Farragut,Beijing,1105
A-YEW-68812,YEW-68812,United States,Nova,San Jose,4525-355
A-QVH-10483,QVH-10483,United Kingdom,Barnett,Leeds,JK02 2CQ
A-ACK-41900,ACK-41900,United Kingdom,Clemons,Liverpool,K9 8GR
A-XFQ-21161,XFQ-21161,United Kingdom,Burning Wood,Edinburgh,2840-044
A-EHK-08169,EHK-08169,Italy,Meadow Vale,Palermo,83040 CEDEX 9
A-CSP-24826,CSP-24826,Scotland,Namekagon,Dunfermline,K24 7LO
A-SET-45973,SET-45973,United Kingdom,Dixon,Southampton,30351
A-ADD-61038,ADD-61038,Italy,Utah,Catania,RC08 8WO
A-HVP-47038,HVP-47038,China,Corscot,Chengdu,27-580
A-OQN-32617,OQN-32617,United Kingdom,Amoth,Newcastle upon Tyne,L7 1SA
A-YUU-89098,YUU-89098,United Kingdom,Hallows,Coventry,UV2 4WQ
A-PXO-21151,PXO-21151,Germany,Hayes,Munich,JM72 5UH
A-XNW-76986,XNW-76986,Italy,Fordem,Naples,9803
A-VDF-59082,VDF-59082,United States,Cody,Columbus,H71 8IB
A-BGC-35875,BGC-35875,United Kingdom,Forster,London,32-437
A-WCG-50530,WCG-50530,United Kingdom,Kipling,Manchester,89280-000
A-DPO-06454,DPO-06454,Belgium,Brickson Park,Aalst,59-141
A-OCK-15121,OCK-15121,United Kingdom,Londonderry,London,EI9 4XO
A-WWT-44312,WWT-44312,United States,Cambridge,Dallas,O71 9RA
A-ODB-15676,ODB-15676,Italy,Kipling,Palermo,6612
A-KJA-27034,KJA-27034,United Kingdom,Buell,Manchester,957-0353
A-AQR-84149,AQR-84149,Finland,Banding,Oulu,VQ80 2NG
A-BNH-10962,BNH-10962,United Kingdom,Cherokee,Newcastle upon Tyne,20067
A-PTQ-64398,PTQ-64398,Belgium,Moland,Ghent,XT0 5JM
A-IPS-69541,IPS-69541,Scotland,Brickson Park,Paisley,G8 2SC
A-XGY-83748,XGY-83748,United Kingdom,Buena Vista,Edinburgh,4940-025
A-CQZ-76294,CQZ-76294,United Kingdom,Hazelcrest,Sheffield,289-1343
A-PEO-16001,PEO-16001,Portugal,Crescent Oaks,Coimbra,426-0025
A-EMV-75759,EMV-75759,United States,Loftsgordon,San Antonio,I1 4RV
A-OBM-73502,OBM-73502,Norway,Logan,Sandnes,36-030
A-WBF-16879,WBF-16879,United Kingdom,Fisk,Liverpool,36164
A-HAR-22578,HAR-22578,United Kingdom,Hallows,Newcastle upon Tyne,27-440
A-RGR-11469,RGR-11469,United Kingdom,Arizona,London,B38 1XH
A-LVG-79918,LVG-79918,United Kingdom,Monument,Glasgow,B8 5AF
A-PUF-89682,PUF-89682,United Kingdom,Del Sol,Leeds,H75 6EB
A-EJL-91111,EJL-91111,United Kingdom,Esker,London,9512
A-GDY-30790,GDY-30790,Austria,West,Dornbirn,X66 1IE
A-TUS-11926,TUS-11926,China,Burning Wood,Chongqing,3740-228
A-QIX-15056,QIX-15056,Germany,Oriole,Hamburg,1047
A-SVU-93791,SVU-93791,France,Corry,Lyon,B0 6FI
A-RZW-26722,RZW-26722,United Kingdom,Troy,London,368551
A-QUY-88158,QUY-88158,United States,Buena Vista,"Washington, D.C.",D11
A-ZWH-69069,ZWH-69069,Switzerland,Di Loreto,Winterthur,IJ0 7WD
A-YTD-33179,YTD-33179,France,Arapahoe,Paris,F40 7XI
A-MZX-10370,MZX-10370,United Kingdom,Tomscot,Hull,YM52 9UP
A-AFW-69793,AFW-69793,United Kingdom,7th,London,05-280
A-JRB-02431,JRB-02431,United Kingdom,Carey,London,63870-000
A-MLT-95923,MLT-95923,United Kingdom,Golden Leaf,London,KU2 6ZF
A-FXH-36524,FXH-36524,United Kingdom,Nelson,Southampton,N1 1PO
A-GHF-09628,GHF-09628,United Kingdom,Carberry,Bristol,815 92
A-RVZ-20037,RVZ-20037,United Kingdom,Hallows,Newcastle upon Tyne,606084
A-YOZ-51374,YOZ-51374,Spain,Dexter,Las Palmas de Gran Canaria,456684
A-OLG-83303,OLG-83303,United Kingdom,Bellgrove,Nottingham,H8 6VH
A-DPT-44886,DPT-44886,China,Oak Valley,Hong Kong,D4 3IA
A-KCA-09675,KCA-09675,United Kingdom,Dayton,Reading,8650-104
A-XVQ-22350,XVQ-22350,United States,New Castle,Chicago,9950-325
A-IEB-59564,IEB-59564,China,Rigney,Harbin,98600-000
A-TKW-80061,TKW-80061,United States,Everett,Houston,309975
A-HFX-27843,HFX-27843,Netherlands,Northview,Eindhoven,G06 0EY
A-JXQ-14185,JXQ-14185,Northern Ireland,Burning Wood,Bangor,357870
A-VAR-99444,VAR-99444,Germany,Northfield,Stuttgart,14910-000
A-KNM-45949,KNM-45949,France,Elgar,Nice,94237
A-SNJ-93984,SNJ-93984,Japan,Muir,Kyoto,N5 0JE
A-HZM-38537,HZM-38537,Belgium,Redwing,Antwerp,547 01
A-JLM-58268,JLM-58268,United Kingdom,Bellgrove,London,L5 5AV
A-VFD-81350,VFD-81350,China,Banding,Wuhan,1005
A-VIT-62611,VIT-62611,United Kingdom,Maple Wood,Newcastle upon Tyne,BE07 4BY
A-MQU-23539,MQU-23539,South Korea,Di Loreto,BUnited Statesn,V3 6YF
A-FTB-74358,FTB-74358,United Kingdom,Dorton,Edinburgh,2420-231
A-TIZ-24782,TIZ-24782,Portugal,6th,Queluz,OU8 7BQ
A-UFI-56226,UFI-56226,United Kingdom,Coolidge,Aberdeen,TD9 6EW
A-PBJ-42226,PBJ-42226,United Kingdom,Canary,Portsmouth,AF30 0YT
A-NZQ-67481,NZQ-67481,United Kingdom,Monterey,Edinburgh,28031
A-MQO-98534,MQO-98534,United Kingdom,Veith,Southampton,5000
A-ZEO-94858,ZEO-94858,Italy,8th,Genoa,VS29 2YQ
A-ZUT-46446,ZUT-46446,United Kingdom,Cody,Leeds,YD0 3YH
A-KQL-73902,KQL-73902,United Kingdom,Union,London,11403
A-JUT-18927,JUT-18927,United States,Coolidge,Austin,PD46 3OQ
A-PBD-78223,PBD-78223,United Kingdom,School,London,88020 CEDEX
A-CCA-97414,CCA-97414,United Kingdom,Ronald Regan,London,I3 3CG
A-CEN-48020,CEN-48020,United Kingdom,Banding,Edinburgh,94110
A-TAW-66746,TAW-66746,Portugal,Sundown,Braga,GB52 8ES
A-CBS-73058,CBS-73058,United Kingdom,Sugar,Reading,UM4 5US
A-CLR-09109,CLR-09109,Austria,Declaration,Klagenfurt,10220
A-LAD-05633,LAD-05633,Scotland,Knutson,Ayr,SV9 9BS
A-CGK-09378,CGK-09378,Italy,Mifflin,Bari,PN59 2PK
A-ZWT-18507,ZWT-18507,United Kingdom,East,Glasgow,HW02 4LP
A-PPZ-63191,PPZ-63191,United Kingdom,Schmedeman,Birmingham,633224
A-KWP-34784,KWP-34784,United Kingdom,Gina,Leeds,L78 7AY
A-BGV-24853,BGV-24853,United Kingdom,John Wall,Hull,721 57
A-IJQ-15681,IJQ-15681,United Kingdom,Mcbride,Aberdeen,O95 8SL
A-ZDE-67156,ZDE-67156,United States,5th,Jacksonville,KU9 7NH
A-ZZY-80768,ZZY-80768,United Kingdom,Thompson,Glasgow,O9 5OI
A-TEZ-94281,TEZ-94281,United Kingdom,Buena Vista,Leeds,966-0033
A-TML-90641,TML-90641,United Kingdom,Chinook,Leeds,72029 CEDEX 2
A-YRZ-45952,YRZ-45952,United Kingdom,Haas,Portsmouth,5400-006
A-SPI-53273,SPI-53273,Belgium,Menomonie,Bruges,6680
A-QTU-06974,QTU-06974,United Kingdom,South,Edinburgh,468 22
A-DOQ-61788,DOQ-61788,United Kingdom,Scoville,London,92398 CEDEX
A-AOZ-11102,AOZ-11102,United Kingdom,Eagle Crest,Birmingham,31136
A-LAE-59686,LAE-59686,United Kingdom,Southridge,London,ZF4 0VL
A-LJM-59667,LJM-59667,United Kingdom,Roxbury,Leeds,20508
A-KEQ-41571,KEQ-41571,United Kingdom,Birchwood,Southampton,W18 0WC
A-OYG-26182,OYG-26182,Sweden,Rieder,Link?ping,I3 5TP
A-AJJ-15954,AJJ-15954,United Kingdom,Loomis,Coventry,22119
A-TJQ-17662,TJQ-17662,United Kingdom,Waywood,Aberdeen,4011
A-CIX-91983,CIX-91983,India,Porter,Pune,85936
A-UGT-79827,UGT-79827,United Kingdom,Kinsman,Newcastle upon Tyne,404102
A-CXA-47437,CXA-47437,United Kingdom,Vera,London,13260
A-IKW-27026,IKW-27026,China,Bashford,Beijing,MB41 3IQ
A-JII-43884,JII-43884,United States,Tony,New York City,65200-000
A-HGE-16486,HGE-16486,United Kingdom,Towne,London,LI24 3HJ
A-JRO-09263,JRO-09263,United Kingdom,Roth,London,1283
A-GEB-72421,GEB-72421,United Kingdom,Johnson,London,Y58 0FS
A-MMJ-69667,MMJ-69667,Switzerland,Lighthouse Bay,Zurich,655131
A-HRP-34167,HRP-34167,United States,Goodland,San Francisco,925-0145
A-EMR-54088,EMR-54088,United Kingdom,Ridgeview,London,XP93 3NV
A-HUV-05024,HUV-05024,United Kingdom,Daystar,Cardiff,JU32 4AS
A-IYC-13702,IYC-13702,United States,Iowa,"Washington, D.C.",RL1 2BX
A-VZC-17407,VZC-17407,United Kingdom,Southridge,Manchester,4930-250
A-UKW-44205,UKW-44205,United Kingdom,Park Meadow,London,757 59
A-KFG-88294,KFG-88294,Sweden,Hallows,Norrk?ping,XE8 3QK
A-DXL-43618,DXL-43618,India,Grayhawk,Surat,7220-565
A-EVV-59635,EVV-59635,United Kingdom,Monica,Leicester,15370-000
A-GJA-70102,GJA-70102,United Kingdom,Laurel,Reading,2740-023
A-WHK-65061,WHK-65061,United Kingdom,Fisk,London,N69 2LY
A-PTX-13323,PTX-13323,Japan,Acker,Yokohama,58353
A-FCT-14531,FCT-14531,France,Packers,Montpellier,49170-000
A-HIU-26726,HIU-26726,United States,7th,Columbus,FO0 4WU
A-SAQ-66658,SAQ-66658,United Kingdom,Hollow Ridge,Cardiff,N8V
A-NQU-01987,NQU-01987,United States,Novick,San Diego,413028
A-NRO-05110,NRO-05110,United States,Welch,Fort Worth,M74 9JL
A-LOZ-17749,LOZ-17749,Belgium,Jenifer,Charleroi,TR3 5XG
A-ARI-57457,ARI-57457,United Kingdom,Stang,Coventry,H2 6AO
A-GTD-36268,GTD-36268,United Kingdom,Ridgeway,Hull,65204 CEDEX
A-OYJ-02741,OYJ-02741,United Kingdom,Larry,London,C2 4GU
A-RUO-63367,RUO-63367,United States,4th,Chicago,34-722
A-SCR-27327,SCR-27327,Italy,Gina,Milan,87505
A-CAH-53474,CAH-53474,United States,Melrose,Denver,636450
A-IQU-63157,IQU-63157,Spain,6th,M¨¢laga,P5E
A-QRP-27328,QRP-27328,United Kingdom,Elgar,Aberdeen,UA2 8AE
A-HEA-58442,HEA-58442,United Kingdom,Fremont,Glasgow,623287
A-LCR-37268,LCR-37268,United Kingdom,Carey,London,2635-483
A-DUA-21239,DUA-21239,United Kingdom,Arrowood,Glasgow,1290
A-YGF-79397,YGF-79397,United Kingdom,Scoville,London,NH18 4HF
A-POE-41197,POE-41197,China,Pierstorff,Shanghai,O8 8HS
A-RDY-02139,RDY-02139,United Kingdom,Michigan,Reading,2350-323
A-KGL-05675,KGL-05675,United Kingdom,Green,Leicester,YQ94 0AI
A-FCW-06581,FCW-06581,Norway,Stone Corner,Oslo,54455
A-JVC-95394,JVC-95394,Northern Ireland,Derek,Ballymena,60686
A-KSK-15379,KSK-15379,United Kingdom,Transport,Birmingham,B92 1KW
A-IWF-82715,IWF-82715,United States,Comanche,Los Angeles,3522
A-MAK-09212,MAK-09212,South Korea,Graedel,Seongnam,27000-000
A-SZH-86572,SZH-86572,United Kingdom,Fordem,Reading,445550
A-LUK-18981,LUK-18981,United Kingdom,Stang,London,L6 9NW
A-SRE-70639,SRE-70639,United Kingdom,Superior,London,JZ41 6JI
A-ZZY-14469,ZZY-14469,United Kingdom,Rieder,Leeds,252 68
A-YLT-23425,YLT-23425,South Korea,Bartillon,Changwon,YG1 7MM
A-YHM-13224,YHM-13224,United Kingdom,Summerview,Manchester,3162
A-VHW-72557,VHW-72557,United Kingdom,Sullivan,London,470017
A-XSC-80700,XSC-80700,United Kingdom,Sage,Leeds,A16 3KE
A-NOJ-37232,NOJ-37232,United Kingdom,Old Shore,London,D39 2XF
A-YLS-69822,YLS-69822,United States,Coolidge,San Jose,HQ61 8FD
A-MWT-07707,MWT-07707,Northern Ireland,Cambridge,Castlereagh,A1 6KN
A-KNI-79689,KNI-79689,Italy,Clyde Gallagher,Bari,BR62 4FB
A-BLY-30045,BLY-30045,Finland,Pawling,Vantaa,768 11
A-VXG-59367,VXG-59367,United Kingdom,Crowley,Edinburgh,M92 5KY
A-BCO-59329,BCO-59329,Scotland,Rockefeller,Perth,G72 0IF
A-DYT-31206,DYT-31206,United Kingdom,Texas,London,S63 6LD
A-RTJ-04713,RTJ-04713,United Kingdom,Nobel,Leeds,TQ39 6TI
A-BYG-41550,BYG-41550,United Kingdom,Blackbird,Edinburgh,L31 2OU
A-WJT-14125,WJT-14125,United Kingdom,Riverside,Belfast,65213-000
A-KZW-92140,KZW-92140,United Kingdom,Onsgard,London,R2 4DY
A-SVS-43484,SVS-43484,United States,Spenser,Fort Worth,10612
A-WXK-76748,WXK-76748,Denmark,Lakewood,Odense,63104
A-PTK-08550,PTK-08550,United Kingdom,Meadow Valley,Manchester,XK4 6MI
A-PTX-38961,PTX-38961,Denmark,Sullivan,Randers,P9 1IW
A-VTB-42026,VTB-42026,United Kingdom,Pine View,Edinburgh,GM5 7DD
A-VOF-40143,VOF-40143,Scotland,Sullivan,Dundee,43-410
A-EYQ-23823,EYQ-23823,United Kingdom,Buell,Reading,404 32
A-QRU-94573,QRU-94573,France,Arkansas,Lille,F4 8TU
A-FBF-05432,FBF-05432,Iceland,Mcbride,Hafnarfj?r?ur,75562 CEDEX 12
A-RMP-54780,RMP-54780,Spain,Shelley,Valencia,EK40 5SV
A-ZPQ-78910,ZPQ-78910,Sweden,Redwing,V?ster?s,KI7 5LX
A-ENU-63550,ENU-63550,United Kingdom,Mockingbird,Edinburgh,Q87 6LB
A-IZZ-78554,IZZ-78554,United Kingdom,Lake View,Leeds,91841
A-DNB-60266,DNB-60266,United Kingdom,Talisman,Edinburgh,NS0 4HE
A-YKS-47183,YKS-47183,India,Myrtle,Hyderabad,413 11
A-BHZ-23518,BHZ-23518,United Kingdom,Briar Crest,Manchester,PV1 9DN
A-MBW-59724,MBW-59724,United Kingdom,Nova,Leeds,9009
A-UUR-46166,UUR-46166,United Kingdom,Coleman,Sheffield,H94 6BS
A-ABZ-35748,ABZ-35748,South Korea,Portage,Incheon,399778
A-QIQ-49871,QIQ-49871,United Kingdom,Thompson,Glasgow,999-2256
A-QPM-15099,QPM-15099,Switzerland,Springview,Lucerne,A43 3ES
A-LHA-23055,LHA-23055,Japan,Dahle,Fukuoka,NV81 0QG
A-MXG-84542,MXG-84542,United Kingdom,Colorado,Manchester,618460
A-KFB-55625,KFB-55625,United Kingdom,Glendale,Coventry,S3 0CD
A-HJV-00142,HJV-00142,United Kingdom,Dapin,London,2720
A-TEH-58652,TEH-58652,United Kingdom,Stuart,London,11009
A-WTL-88134,WTL-88134,United Kingdom,Bartelt,London,393028
A-YYW-28076,YYW-28076,United States,Rusk,"Washington, D.C.",6538
A-GMD-26335,GMD-26335,Germany,7th,Frankfurt,DL4 2AD
A-QDP-84214,QDP-84214,United Kingdom,Buena Vista,Leeds,31079 CEDEX 5
A-TLO-13546,TLO-13546,United Kingdom,Fremont,Liverpool,7047
A-IRS-13493,IRS-13493,United Kingdom,Mesta,Sheffield,NH8 7RS
A-ZHI-58973,ZHI-58973,United Kingdom,Jackson,Birmingham,A86 7DM
A-MTH-96141,MTH-96141,United Kingdom,Arapahoe,Manchester,W85 8ED
A-NTZ-42790,NTZ-42790,United Kingdom,Drewry,Birmingham,859-0413
A-PTE-45627,PTE-45627,United Kingdom,Talisman,Edinburgh,YJ05 4UZ
A-YGN-64592,YGN-64592,Switzerland,Ridgeway,Zurich,N2 6BP
A-JKE-52922,JKE-52922,United Kingdom,Atwood,Manchester,KG6 6ZO
A-GCZ-32454,GCZ-32454,United Kingdom,Cardinal,London,L72 7DF
A-EAY-34601,EAY-34601,Netherlands,Melby,Groningen,ZK2 2JL
A-HWW-24459,HWW-24459,United Kingdom,Charing Cross,London,S87 5LN
A-DVK-11724,DVK-11724,United Kingdom,Waywood,Edinburgh,55460-000
A-RKW-27660,RKW-27660,Ireland,Bluestem,Drogheda,K5 7UJ
A-SHJ-00925,SHJ-00925,Sweden,Lotheville,V?ster?s,J9 4RD
A-ZZH-77082,ZZH-77082,Sweden,6th,Norrk?ping,83-210
A-UAZ-36054,UAZ-36054,United Kingdom,Prentice,Bristol,72240
A-BCP-90420,BCP-90420,United States,Lerdahl,Los Angeles,606083
A-UIG-75978,UIG-75978,United Kingdom,Carpenter,Leeds,691 45
A-LPI-19356,LPI-19356,United Kingdom,Grayhawk,Manchester,K68 5GN
A-KQZ-24675,KQZ-24675,United Kingdom,Beilfuss,Edinburgh,10001
A-GNI-76639,GNI-76639,Scotland,Harper,Livingston,F5 5FR
A-QJQ-50940,QJQ-50940,United Kingdom,Summerview,London,JY2 5DX
A-VUF-41526,VUF-41526,United Kingdom,Golden Leaf,Belfast,69281 CEDEX 01
A-XVD-47281,XVD-47281,Netherlands,Mayer,Rotterdam,M3 6RW
A-IKL-51929,IKL-51929,Northern Ireland,Westerfield,Newtownards,10250
A-CYM-44377,CYM-44377,United States,Talisman,San Antonio,10009
A-LTM-52652,LTM-52652,United Kingdom,Blaine,Bristol,659642
A-NEH-97159,NEH-97159,United Kingdom,Bowman,London,3860-205
A-DIS-29870,DIS-29870,France,Blackbird,Bordeaux,79150-000
A-KVB-91700,KVB-91700,United Kingdom,Farragut,Manchester,OH49 5EU
A-VGS-64747,VGS-64747,Ireland,Menomonie,Limerick,Q72 0NM
A-IHF-62257,IHF-62257,United Kingdom,Little Fleur,Manchester,J6N
A-HXC-87079,HXC-87079,United Kingdom,John Wall,London,J5 8EK
A-MMA-10445,MMA-10445,United Kingdom,Rieder,London,64058 CEDEX 9
A-RYE-30653,RYE-30653,Scotland,Esker,Edinburgh,3423
A-VBF-66169,VBF-66169,United Kingdom,High Crossing,Bristol,439 23
A-BXA-22860,BXA-22860,United States,Lyons,San Francisco,H9K
A-NJO-69296,NJO-69296,United Kingdom,Texas,Leeds,FY82 3IR
A-MLK-68383,MLK-68383,India,Bay,Delhi,KB42 9SC
A-AOJ-73434,AOJ-73434,United Kingdom,Harbort,London,UE56 3LW
A-NTW-08882,NTW-08882,Germany,Marcy,Munich,692425
A-POA-38149,POA-38149,United Kingdom,Continental,Newcastle upon Tyne,3523
A-UBD-07568,UBD-07568,United Kingdom,Banding,Sheffield,99-320
A-RUP-04758,RUP-04758,China,Sunfield,Changchun,252 82
A-WMY-63842,WMY-63842,China,Manley,Chongqing,Q0 5GS
A-FIA-60158,FIA-60158,United Kingdom,South,London,PH89 5GH
A-JSK-62208,JSK-62208,United Kingdom,Heffernan,London,9913
A-JES-02285,JES-02285,United Kingdom,Comanche,Leeds,G97 3YA
A-VNR-13040,VNR-13040,United Kingdom,Lakeland,London,523 90
A-TNX-59660,TNX-59660,United Kingdom,Spenser,London,47405
A-COA-65179,COA-65179,United States,Quincy,Dallas,Z1 9QZ
A-MQL-02582,MQL-02582,Belgium,Walton,Antwerp,Y1 9SI
A-XXK-61880,XXK-61880,Northern Ireland,Truax,Belfast,748
A-ORY-45180,ORY-45180,United Kingdom,Manitowish,Belfast,A3 4YW
A-DOJ-14511,DOJ-14511,Belgium,Fisk,Brussels,250258
A-ZYN-60769,ZYN-60769,United Kingdom,Larry,Edinburgh,E8 9SB
A-COF-75265,COF-75265,United Kingdom,Kings,Edinburgh,64300-000
A-ICS-07582,ICS-07582,United Kingdom,Oxford,London,2000
A-AXQ-42281,AXQ-42281,United Kingdom,Sauthoff,London,U5 7MN
A-EQR-89794,EQR-89794,United Kingdom,Waubesa,Coventry,TE0 2GV
A-YIG-95564,YIG-95564,China,East,Suzhou,38-247
A-HAK-86449,HAK-86449,Spain,Basil,Madrid,A08 7ID
A-KUU-19784,KUU-19784,United Kingdom,Waubesa,Belfast,MX65 7LG
A-SCX-81237,SCX-81237,United Kingdom,Clove,Edinburgh,14016
A-XEY-89889,XEY-89889,United Kingdom,Manitowish,London,7304
A-IKE-64924,IKE-64924,United Kingdom,Roxbury,Nottingham,83164 CEDEX
A-TJU-52466,TJU-52466,United Kingdom,Grasskamp,Glasgow,VC07 6JH
A-HUE-68155,HUE-68155,United States,Linden,Jacksonville,6802
A-FZP-81251,FZP-81251,Netherlands,Arizona,Nijmegen,CE8 6MP
A-ZJY-02828,ZJY-02828,Portugal,Summit,Coimbra,152850
A-NCS-94857,NCS-94857,Finland,International,Pori,VP48 2IY
A-JLU-49349,JLU-49349,China,Declaration,Shanghai,6606
A-VAI-84449,VAI-84449,United Kingdom,Manitowish,Manchester,EY51 3TT
A-QQJ-48657,QQJ-48657,Portugal,Linden,Vila Nova de Gaia,D8 4XC
A-QVH-92349,QVH-92349,United Kingdom,Sauthoff,Newcastle upon Tyne,F96 9SV
A-BIS-07742,BIS-07742,Switzerland,Nelson,Basel,75419 CEDEX 08
A-XXO-92655,XXO-92655,United Kingdom,Coleman,Nottingham,4910-060
A-RDZ-54636,RDZ-54636,South Korea,Hollow Ridge,Seoul,H08 8OJ
A-XIO-28726,XIO-28726,United Kingdom,Linden,London,L-8069
A-UFW-37583,UFW-37583,United Kingdom,Meadow Vale,Belfast,48206
A-QPX-72312,QPX-72312,United Kingdom,Rusk,Portsmouth,D9 4HW
A-UGW-89615,UGW-89615,United Kingdom,Banding,Sheffield,A1 9ON
A-ZOL-28270,ZOL-28270,United Kingdom,Summit,Sheffield,93571 CEDEX
A-DUL-87166,DUL-87166,United Kingdom,Village Green,London,MN8 2AZ
A-DLG-56415,DLG-56415,United Kingdom,Fuller,Leeds,QZ99 4OQ
A-LAG-16695,LAG-16695,United Kingdom,Warner,London,65110
A-AGX-69017,AGX-69017,China,Roth,Shanghai,96970
A-EWB-32684,EWB-32684,United States,Thierer,Denver,YQ40 9YH
A-XMT-71040,XMT-71040,United Kingdom,Ramsey,Coventry,90110
A-IJN-27854,IJN-27854,United Kingdom,Mcguire,London,X04 0XL
A-MLS-90290,MLS-90290,Austria,Fairfield,Vienna,Z91 8QH
A-ICC-99521,ICC-99521,United Kingdom,Lighthouse Bay,Manchester,3109
A-ZMQ-52290,ZMQ-52290,United States,Sundown,Philadelphia,2154
A-EAU-98403,EAU-98403,United Kingdom,Ryan,London,869-1237
A-HNP-76876,HNP-76876,United Kingdom,Mayer,London,34-322
A-MSX-56988,MSX-56988,United Kingdom,Hazelcrest,Leicester,B0 2FO
A-HGY-58755,HGY-58755,India,Bonner,Kolkata,11001
A-CCC-65669,CCC-65669,Sweden,Havey,Gothenburg,4404
A-MGU-19135,MGU-19135,United Kingdom,Grasskamp,Hull,3007
A-YXH-23985,YXH-23985,United Kingdom,Hintze,Reading,95960-000
A-LOQ-27839,LOQ-27839,United Kingdom,Fordem,London,B1 5VO
A-PXE-28439,PXE-28439,China,Walton,Wuhan,96970
A-KLB-70395,KLB-70395,United Kingdom,Green Ridge,London,IQ5 4PL
A-WFT-51973,WFT-51973,United Kingdom,Mosinee,Aberdeen,659070
A-WTV-24522,WTV-24522,Germany,Fremont,Essen,M9 4XP
A-LJM-32158,LJM-32158,Germany,Laurel,D¨¹sseldorf,G1 7UD
A-UPU-24968,UPU-24968,Scotland,Russell,East Kilbride,PL0 1BY
A-KRK-98174,KRK-98174,United Kingdom,Sundown,London,D71 7MP
A-QQU-83626,QQU-83626,United States,Rusk,Seattle,EH76 8KW
A-ODS-21485,ODS-21485,Switzerland,Transport,Bern,F8 8EC
A-IAS-82699,IAS-82699,United Kingdom,Bultman,London,72011
A-PLW-49583,PLW-49583,United Kingdom,Buhler,London,W9 2WN
A-WZP-53704,WZP-53704,United Kingdom,Coleman,Manchester,542 87
A-KTB-11837,KTB-11837,Northern Ireland,Spaight,Lisburn,4323
A-JMQ-20487,JMQ-20487,Netherlands,Clove,Amsterdam,94590
A-HXW-67761,HXW-67761,United States,Judy,New York City,L35 8AA
A-UUD-00518,UUD-00518,Spain,Graedel,Zaragoza,73-121
A-GIG-38418,GIG-38418,United Kingdom,Charing Cross,Southampton,2565-650
A-ULU-83468,ULU-83468,Austria,Melby,Salzburg,WZ0 4ES
A-MPT-86934,MPT-86934,United Kingdom,Declaration,Portsmouth,10315
A-MWH-12959,MWH-12959,United Kingdom,Lyons,Manchester,P6 9PR
A-OWM-68688,OWM-68688,United States,Jenna,Charlotte,PV3 0GL
A-GAZ-03231,GAZ-03231,United Kingdom,Corry,London,601136
A-NUH-67861,NUH-67861,United Kingdom,Coleman,Aberdeen,IQ5 5IN
A-CZW-80277,CZW-80277,United Kingdom,Lakewood Gardens,Nottingham,27705
A-ZGI-84369,ZGI-84369,Germany,5th,Frankfurt,369228
A-APC-01768,APC-01768,Spain,School,Barcelona,58322-000
A-ZIJ-65662,ZIJ-65662,Iceland,Knutson,Mosfellsb?r,44984 CEDEX
A-IWC-92479,IWC-92479,United Kingdom,Heath,Leeds,341 92
A-PYM-68349,PYM-68349,Denmark,Mayfield,Gentofte,HP13 9JI
A-YQU-81456,YQU-81456,United Kingdom,Prentice,Hull,34800-000
A-DBP-24429,DBP-24429,Italy,Carey,Florence,WX3 2SG
A-VSM-53471,VSM-53471,United Kingdom,Elka,Leeds,G14 6HW
A-FOO-44106,FOO-44106,United Kingdom,American Ash,Cardiff,H71 7KF
A-XTK-90532,XTK-90532,United Kingdom,Lawn,London,WU4 0FO
A-JUM-91291,JUM-91291,Sweden,Mesta,Stockholm,3262
A-DDE-74819,DDE-74819,United Kingdom,Pleasure,London,5616
A-BSH-38777,BSH-38777,United States,Burning Wood,Chicago,I12 0ZE
A-LYK-21539,LYK-21539,Austria,Emmet,Vienna,57-403
A-FMY-46392,FMY-46392,United Kingdom,Thackeray,Birmingham,N04 3CD
A-UDK-78779,UDK-78779,United Kingdom,Welch,Portsmouth,IJ86 1PJ
A-SBV-33758,SBV-33758,France,Dovetail,Strasbourg,94049 CEDEX
A-NZV-94456,NZV-94456,China,Hagan,Beijing,N5 3JJ
A-QHK-74746,QHK-74746,United Kingdom,Randy,Cardiff,L1 4AP
A-KDM-30579,KDM-30579,United Kingdom,Memorial,Coventry,Z7 5AS
A-FLX-44262,FLX-44262,United Kingdom,Birchwood,Portsmouth,7100
A-OEH-22635,OEH-22635,Netherlands,Tony,Breda,520-0111
A-JCQ-09224,JCQ-09224,United Kingdom,Huxley,London,150627
A-QNA-93735,QNA-93735,Spain,Corry,Barcelona,95719 CEDEX 1
A-ZWJ-10125,ZWJ-10125,United Kingdom,Gina,Leeds,9261
A-LTD-38334,LTD-38334,Switzerland,Red Cloud,Lucerne,8521
A-VEU-52201,VEU-52201,Austria,Everett,Linz,603 86
A-QTN-24773,QTN-24773,United Kingdom,Talmadge,Manchester,5050-401
A-RRC-98678,RRC-98678,Portugal,Rutledge,Braga,9212
A-VUI-20863,VUI-20863,China,Gina,Chengdu,A1 3NE
A-FMK-45964,FMK-45964,United Kingdom,Veith,Reading,68704 CEDEX
A-JMV-63650,JMV-63650,Austria,Summer Ridge,Innsbruck,461 37
A-FYW-82378,FYW-82378,United Kingdom,Magdeline,Newcastle upon Tyne,95324 CEDEX
A-QMB-42913,QMB-42913,United Kingdom,Ridge Oak,Reading,G08 8OV
A-VML-90123,VML-90123,Germany,Forster,Dortmund,9494
A-QGZ-86770,QGZ-86770,Wales,Westerfield,Wrexham,22-610
A-QNK-21884,QNK-21884,India,Fallview,Ahmedabad,452 24
A-RCE-74356,RCE-74356,United Kingdom,Grim,Manchester,453259
A-QUK-15821,QUK-15821,United Kingdom,Laurel,Sheffield,2802
A-XLR-65815,XLR-65815,France,Roth,Lyon,QC21 8FL
A-AFW-66138,AFW-66138,United Kingdom,Golf,London,6160-402
A-IQS-21743,IQS-21743,China,Graedel,Beijing,181370
A-SYX-74952,SYX-74952,United Kingdom,Parkside,Coventry,22-672
A-PNA-60587,PNA-60587,Spain,Stang,Palma,R4 1MJ
A-KQK-24032,KQK-24032,China,Knutson,Guangzhou,X92 6DN
A-PFB-50825,PFB-50825,United Kingdom,Erie,London,4650-127
A-KNV-44610,KNV-44610,United Kingdom,Transport,Manchester,O06 0AJ
A-IXR-04321,IXR-04321,United Kingdom,Continental,Newcastle upon Tyne,NR29
A-UXJ-14471,UXJ-14471,United Kingdom,Hermina,Reading,2529
A-UIJ-93892,UIJ-93892,United Kingdom,Springview,Manchester,49003
A-TPX-63014,TPX-63014,United Kingdom,Prairie Rose,Birmingham,LA7 5OE
A-VSI-91745,VSI-91745,Wales,Troy,Llanelli,A84 5UI
A-TGR-48548,TGR-48548,Sweden,Crest Line,Uppsala,78700-000
A-FJN-80678,FJN-80678,United Kingdom,Buhler,Southampton,1600
A-NDT-13901,NDT-13901,United Kingdom,Village,Sheffield,69-210
A-LXW-01086,LXW-01086,Finland,Charing Cross,Helsinki,1225
A-CST-99897,CST-99897,Iceland,Coleman,Gar?ab?r,3405-400
A-QZA-08469,QZA-08469,United Kingdom,Cordelia,Nottingham,54801
A-BEJ-75137,BEJ-75137,United Kingdom,Sugar,Sheffield,HB9 9NM
A-AHO-09209,AHO-09209,Switzerland,Sherman,Bern,120 30
A-QKN-03516,QKN-03516,China,Muir,Shanghai,636330
A-BGN-68986,BGN-68986,United Kingdom,Lerdahl,London,319-1111
A-BIE-51939,BIE-51939,United Kingdom,Fieldstone,Bristol,2445-705
A-VWR-42732,VWR-42732,Norway,Birchwood,Trondheim,94180
A-MOR-40739,MOR-40739,United Kingdom,Killdeer,Reading,9015
A-EJP-62441,EJP-62441,United Kingdom,Lien,Birmingham,1980
A-NLW-98713,NLW-98713,United Kingdom,Farwell,London,H1 8TA
A-IHQ-86490,IHQ-86490,United Kingdom,Ronald Regan,Belfast,761517
A-CIH-52506,CIH-52506,China,Paget,Nanjing,4187
A-LED-69134,LED-69134,United Kingdom,Judy,Liverpool,90160
A-MIP-26327,MIP-26327,United Kingdom,Vidon,Portsmouth,NE9 3GA
A-KDI-76812,KDI-76812,United Kingdom,Ramsey,Leeds,5002
A-UFI-48558,UFI-48558,United Kingdom,3rd,Southampton,90035
A-JVA-90505,JVA-90505,United Kingdom,Buell,Bristol,TY77 4QG
A-YXL-14030,YXL-14030,Germany,Graedel,Cologne,10514
A-VCZ-90464,VCZ-90464,United Kingdom,Welch,London,4110
A-CIT-45280,CIT-45280,Portugal,Anderson,Set¨²bal,13230
A-HTD-12367,HTD-12367,Netherlands,Goodland,Tilburg,YW43 5UT
A-EXR-99791,EXR-99791,United Kingdom,Jenna,Leeds,F4 4PJ
A-SNM-90126,SNM-90126,South Korea,Green,Ulsan,WV02 3DN
A-FPS-10159,FPS-10159,United Kingdom,Atwood,London,PI9 5OA
A-IWS-33890,IWS-33890,Wales,Oak Valley,Bridgend,06400-000
A-KEC-57238,KEC-57238,Denmark,Gateway,Gladsaxe,K8 1RP
A-NDC-71905,NDC-71905,United States,Corscot,"Washington, D.C.",H41 6LE
A-SHG-68132,SHG-68132,United Kingdom,Delaware,London,20270
A-AIR-77248,AIR-77248,United Kingdom,Iowa,London,413067
A-EOV-29622,EOV-29622,United Kingdom,Barnett,London,511 01
A-RVQ-69259,RVQ-69259,United States,Drewry,New York City,O9 9IU
A-UGM-39967,UGM-39967,Austria,Little Fleur,Salzburg,L7 5RQ
A-CJB-72824,CJB-72824,United Kingdom,Talisman,London,4514
A-JQX-01785,JQX-01785,United Kingdom,Brown,Birmingham,EE7 6ND
A-HMM-87657,HMM-87657,United Kingdom,Kipling,Manchester,G86 1MS
A-JDZ-46807,JDZ-46807,Italy,Independence,Naples,984-0075
A-TZZ-56960,TZZ-56960,China,Reindahl,Chengdu,6010
A-LQW-93851,LQW-93851,Switzerland,Graceland,Lugano,369-1201
A-FLN-91785,FLN-91785,United Kingdom,Mitchell,Coventry,60070
A-SSQ-95080,SSQ-95080,Switzerland,Cherokee,LaUnited Statesnne,RY18 4OO
A-QLM-68637,QLM-68637,United Kingdom,Knutson,London,Y5 4OH
A-KTS-18464,KTS-18464,United Kingdom,Esker,Newcastle upon Tyne,36-212
A-FUF-54113,FUF-54113,United Kingdom,Colorado,Manchester,55407
A-TZD-59879,TZD-59879,Northern Ireland,Oxford,Carrickfergus,2049
A-ZCE-14171,ZCE-14171,Germany,Brickson Park,Cologne,QQ51 6LW
A-GKG-61060,GKG-61060,Austria,Morning,Villach,416372
A-NSQ-58515,NSQ-58515,United States,Starling,Chicago,2725
A-BWO-64577,BWO-64577,Finland,Warrior,Kuopio,E35 5YL
A-YNC-00796,YNC-00796,India,Mariners Cove,Chennai,EW36 5VP
A-DCD-29828,DCD-29828,China,Susan,Beijing,41200
A-CYT-48537,CYT-48537,Norway,Loomis,Drammen,2424
A-JRR-80185,JRR-80185,United Kingdom,Mayer,Southampton,4425
A-VPI-04430,VPI-04430,Italy,Mitchell,Rome,J7 1WL
A-TRS-30767,TRS-30767,United Kingdom,Ohio,Manchester,607614
A-JWN-82668,JWN-82668,United Kingdom,Ruskin,Sheffield,10505
A-TXO-90762,TXO-90762,United Kingdom,Carioca,Edinburgh,42275 CEDEX
A-EQH-41157,EQH-41157,United Kingdom,Pepper Wood,London,3505-209
A-ZKU-53935,ZKU-53935,United Kingdom,Center,Glasgow,44958 CEDEX 9
A-UHS-19087,UHS-19087,United Kingdom,Merchant,London,E8 0AS
A-XDV-26179,XDV-26179,United Kingdom,Nobel,Southampton,E0 1VI
A-DDK-78895,DDK-78895,United Kingdom,Cordelia,London,V21 2YK
A-NWB-87449,NWB-87449,United Kingdom,Oriole,Manchester,MH33 9PX
A-PPQ-61775,PPQ-61775,United Kingdom,Anderson,London,92398 CEDEX
A-HTO-63167,HTO-63167,United Kingdom,Helena,Glasgow,169510
A-UGL-64107,UGL-64107,United Kingdom,Bobwhite,London,FW88 2EU
A-KZN-82278,KZN-82278,Italy,Schlimgen,Turin,371 23
A-GCV-82748,GCV-82748,Belgium,Sugar,Aalst,6525
A-VRD-83323,VRD-83323,United Kingdom,Crowley,Birmingham,WK40 7XU
A-ZPC-98889,ZPC-98889,Wales,Delaware,Cwmbran,R13 7EP
A-YVL-56905,YVL-56905,United Kingdom,Veith,Leeds,83120
A-JXQ-82558,JXQ-82558,United Kingdom,Moose,Sheffield,B97 6XV
A-QVD-94116,QVD-94116,United Kingdom,Bonner,Bristol,R63 5YB
A-FZR-57246,FZR-57246,United Kingdom,Hudson,London,IZ2 1GI
A-FND-75160,FND-75160,United Kingdom,Butterfield,Liverpool,X76 1BT
A-UZY-04994,UZY-04994,United Kingdom,Bonner,Leicester,SN9 7ZP
A-QXK-22891,QXK-22891,United Kingdom,Kinsman,Nottingham,11205
A-AKM-37896,AKM-37896,United Kingdom,Jana,London,PS34 9RD
A-BCR-00831,BCR-00831,Belgium,Lawn,Leuven,46130
A-ZLW-45405,ZLW-45405,United Kingdom,Westend,Edinburgh,P3 1CO
A-AKY-54705,AKY-54705,United Kingdom,Holmberg,Sheffield,99-352
A-ANP-07586,ANP-07586,Switzerland,Manufacturers,Biel/Bienne,R44 3BU
A-UZT-05381,UZT-05381,China,Westport,Shanghai,NM4 2TO
A-QBZ-02779,QBZ-02779,France,Almo,Nantes,UK6 7BJ
A-UQK-28043,UQK-28043,Scotland,Grasskamp,Hamilton,1728
A-DOF-13139,DOF-13139,China,Old Shore,Beijing,8301
A-NEM-81652,NEM-81652,United Kingdom,Rieder,London,QU47 0HD
A-QOU-48886,QOU-48886,Germany,Starling,Leipzig,Z93 6BB
A-IHU-74705,IHU-74705,United Kingdom,Chive,Portsmouth,H96 5XR
A-SVU-94600,SVU-94600,France,Green,Bordeaux,Z79 9JK
A-ZFY-12077,ZFY-12077,United Kingdom,Glendale,Bristol,5719
A-AJF-50197,AJF-50197,United Kingdom,Elmside,Glasgow,H22 5CV
A-UKT-19648,UKT-19648,United Kingdom,Summer Ridge,London,11-130
A-OOU-79498,OOU-79498,United Kingdom,Cottonwood,Leicester,8045
A-DDF-99711,DDF-99711,United Kingdom,Namekagon,Birmingham,2415-177
A-RWJ-49085,RWJ-49085,United Kingdom,Clyde Gallagher,London,453444
A-EEF-42944,EEF-42944,United Kingdom,Bunting,Bristol,IL94 4GB
A-JMH-88330,JMH-88330,Finland,Ridgeview,Espoo,SW80 4AS
A-EGX-96267,EGX-96267,United Kingdom,Susan,Aberdeen,2710-470
A-HCI-82099,HCI-82099,United States,Jay,Houston,142717
A-GOO-46071,GOO-46071,United Kingdom,Pond,London,5155-505
A-JMM-98523,JMM-98523,United Kingdom,Donald,Birmingham,R42 5RT
A-MBO-11389,MBO-11389,Spain,Comanche,Palma,C3 2WJ
A-YJB-45844,YJB-45844,Spain,Marquette,Zaragoza,2416
A-QYD-59778,QYD-59778,Belgium,Hanson,Namur,M9 8ID
A-XOF-92243,XOF-92243,United Kingdom,Garrison,Hull,ON96 0FZ
A-CLJ-14938,CLJ-14938,United Kingdom,Merrick,London,PF7 6EB
A-LWE-18087,LWE-18087,United Kingdom,Jenifer,Leeds,75729 CEDEX 15
A-MCY-44994,MCY-44994,Denmark,Saint Paul,Esbjerg,M25 9EP
A-OTL-23680,OTL-23680,United Kingdom,Warrior,London,NK3 4EM
A-XBY-00724,XBY-00724,China,Warbler,Chongqing,3800-596
A-TMU-90195,TMU-90195,United Kingdom,6th,London,QV90 9IK
A-XMP-64561,XMP-64561,United Kingdom,Victoria,Nottingham,TT49 6EC
A-HMN-77531,HMN-77531,United Kingdom,Bonner,London,2356
A-FSF-24402,FSF-24402,South Korea,Montana,Suwon,742-0021
A-PXO-00479,PXO-00479,United Kingdom,Loftsgordon,Edinburgh,620995
A-PPF-50418,PPF-50418,China,Annamark,Tianjin,WM0 7PO
A-FXX-31379,FXX-31379,United Kingdom,Scott,London,B38 2JK
A-MZW-48414,MZW-48414,Netherlands,Summer Ridge,Groningen,HH8 9DQ
A-GGA-97972,GGA-97972,United Kingdom,Sheridan,Birmingham,PH9 5SF
A-LSY-40707,LSY-40707,United Kingdom,Oriole,London,PL56 2YC
A-NOK-69162,NOK-69162,Norway,Blue Bill Park,Kristiansand,VZ15 7WM
A-UEI-48215,UEI-48215,United Kingdom,Hudson,Leeds,352574
A-HEA-28649,HEA-28649,France,Magdeline,Paris,45045 CEDEX 1
A-NBL-63912,NBL-63912,United Kingdom,Spenser,London,P94 5GE
A-XOO-91709,XOO-91709,Sweden,Sundown,J?nk?ping,4610-695
A-LCY-21128,LCY-21128,United Kingdom,Westend,Coventry,280
A-ITF-74124,ITF-74124,United Kingdom,Tennyson,Edinburgh,79600-000
A-IMV-36141,IMV-36141,United Kingdom,Hollow Ridge,Newcastle upon Tyne,95201
A-HAA-52810,HAA-52810,United Kingdom,Helena,London,A26 1CC
A-EQB-05280,EQB-05280,United Kingdom,Bartelt,London,S18 3BE
A-IHO-25195,IHO-25195,Iceland,Messerschmidt,Reykjanesb?r,9401
A-ZVR-05991,ZVR-05991,Belgium,Sunnyside,Namur,86-055
A-NBG-71108,NBG-71108,United Kingdom,Blackbird,Aberdeen,5850
A-JFI-74685,JFI-74685,Switzerland,Beilfuss,Winterthur,38-535
A-EYW-62171,EYW-62171,United Kingdom,Forest,London,MJ51 0QD
A-NMU-01030,NMU-01030,United Kingdom,Elka,Belfast,3601
A-AYP-00297,AYP-00297,United Kingdom,Dapin,London,446849
A-ZVF-72846,ZVF-72846,Switzerland,Steensland,Basel,M7 2RL
