caddress_id,country,street,postcode,city
A01HQP4D6EPK4PAV4YMVS21GX2V,United Kingdom,Meadow Valley,97254 CEDEX,London
A01HQP4D6ET6MQRS9KMWDM703P7,United Kingdom,Sunbrook,O2 9RV,London
A01HQP4D6EY8KQN0752H4ECNKNP,Italy,Crest Line,E58 9ES,Turin
A01HQP4D6F1FXNC74SFQQ7ZGQ9D,United Kingdom,Merrick,Y88 2HZ,London
A01HQP4D6F3GARG3KX245M4PPQV,Switzerland,Kipling,1695,Basel
A01HQP4D6F6ZPPAN4N3V2ZQ8F57,Switzerland,Reindahl,J2 3NQ,Winterthur
A01HQP4D6F9N1GXR5ZRXN0XNMC3,United Kingdom,Fulton,G9 6II,London
A01HQP4D6FCKXJHEP749D1GRP2M,United Kingdom,Johnson,WU4 5YB,Belfast
A01HQP4D6FF6CX0GT0A03JE1T9E,Iceland,Roth,29-100,Reykjanesb?r
A01HQP4D6FJEMVGS7WS8YWE6C54,United Kingdom,Susan,E10 8YF,London
A01HQP4D6FMJNXQY9RDQ422XQ92,United Kingdom,Homewood,O9 3FK,London
A01HQP4D6FQAZK7HVY6Z977F7R3,United Kingdom,Steensland,VV0 5RQ,Edinburgh
A01HQP4D6FT82R95B43M7C64Y3Y,United Kingdom,Sage,DM5 2YT,London
A01HQP4D6FXP31471V7T0SJK30N,Sweden,Roxbury,YN6 2HP,J?nk?ping
A01HQP4D6FZH084M1Y5DZ77XRB5,United Kingdom,Everett,LY26 2WV,Leeds
A01HQP4D6G2VMDVDTYDAGPB5Z03,United Kingdom,Lakewood Gardens,OU7 2JR,London
A01HQP4D6G3RMM1NGN0HQMVJ8WC,Norway,Hudson,120 30,Kristiansand
A01HQP4D6G4CZ2Z5B0R1WEPRX7T,United Kingdom,Surrey,9801,London
A01HQP4D6G5A1NX4A9Q3YF0C7T7,United Kingdom,Bunker Hill,LB53 0NV,Edinburgh
A01HQP4D6G63QYFEPS3ZG06VKXA,Denmark,Gale,H27 0WK,Aarhus
A01HQP4D6G7BS6MTXNB04HDMRSH,United Kingdom,5th,O9 5NG,Leicester
A01HQP4D6G89VRB9JW4W2ZE1K0T,United Kingdom,La Follette,3525-405,Edinburgh
A01HQP4D6G97HT7QDVZRK448ZVS,United States,Nevada,J5 7UW,Phoenix
A01HQP4D6GBVATM75E4CEPE073P,United States,Schiller,S8,Denver
A01HQP4D6GC0SMN3P7WTA7ZYV51,Portugal,Gerald,2701,Aveiro
A01HQP4D6GDV96PKC2B4EYHFMMD,China,Kropf,10805,Tianjin
A01HQP4D6GE7Q8Z98BEXSFA9FSE,United Kingdom,Susan,362-0025,Leeds
A01HQP4D6GFYMC3S7FHBTKQ7782,South Korea,Hagan,D28 6VZ,Suwon
A01HQP4D6GG30SGNVY3MQV665YE,United Kingdom,Darwin,G27 3OG,Reading
A01HQP4D6GHY9MX7VVKBV4FT80C,United Kingdom,Killdeer,AH38 7VK,Leeds
A01HQP4D6GJ4TC98G6ZQYSDF3S2,Norway,Elgar,TH3 3LV,Stavanger
A01HQP4D5A9M1ESQ82FTN6A75F5,France,Summerview,8088,Nice
A01HQP4D5ADG024W0B01ZJKGDWA,Belgium,Artisan,J3 8WH,Li¨¨ge
A01HQP4D5AF65KZWACSPRQ5DHPJ,Sweden,Gale,UM58 7LZ,?rebro
A01HQP4D5AHJHKG757VFA61P6QY,Denmark,Dryden,462244,Copenhagen
A01HQP4D5AMWZ4JY5QG1YSDQ2AZ,Scotland,Buena Vista,34504 CEDEX,Glasgow
A01HQP4D5APNZYFP95MH9J9FZ3G,United Kingdom,Anhalt,MN6 0HH,Birmingham
A01HQP4D5AS2VKW51ZF00REHH7Z,Switzerland,Forster,YH48 6GZ,St. Gallen
A01HQP4D5AWK3CB9BMTXRKK1TNN,United Kingdom,Anniversary,J56 9KA,Manchester
A01HQP4D5AYTGB7PHEDKGQDTRJD,apan,West,963-5343,Tokyo
A01HQP4D5B0KF36KNB8WY8D6RH1,United Kingdom,Stephen,36104,London
A01HQP4D5B22RZ1SD5DETFBS47D,United States,Hoard,429315,Phoenix
A01HQP4D5B4G0SYVH71DK8EMXVQ,United Kingdom,Elka,722 25,Bristol
A01HQP4D5B790HX5YT74RTVVCAD,United Kingdom,Scofield,671360,Sheffield
A01HQP4D5B9WZXV40J2MHB1BAJK,United Kingdom,Amoth,S45 8TZ,Liverpool
A01HQP4D5BBN3NGPYNKJ92GKPDN,United Kingdom,Pierstorff,6060-089,London
A01HQP4D5BD6JG72TSRRDYQ5ZZN,United Kingdom,Packers,08013 CEDEX,London
A01HQP4D5BF68E5KBK27ABBX044,Austria,Dryden,Y9 3XY,Linz
A01HQP4D5BJ4SFJXZ0TAEJJ2VN2,United Kingdom,Novick,I6 5AZ,Leicester
A01HQP4D5BMCSVFR2B8B199C496,Belgium,Monica,3280,Leuven
A01HQP4D5BPW0Z298H66W0HC8Z8,United States,Magdeline,J8B,San Diego
A01HQP4D5BSWFHK45MM2PYVQXVE,United Kingdom,Maywood,656-2225,London
A01HQP4D5BV1M902CXNZ1HZHSP8,United Kingdom,Badeau,QZ9 4GU,London
A01HQP4D5BXW9BBGA3JM7A6XFND,United Kingdom,Eastwood,142672,Belfast
A01HQP4D5BZDQ70F7R1MDAPHC0R,Spain,Elmside,IT10 4YT,Bilbao
A01HQP4D5C1Q5ZN82ZNG61HJ70R,United Kingdom,Everett,Y01 3JA,London
A01HQP4D5C345NKY1ZA0R30Y9KY,Portugal,Saint Paul,U7 6YU,Funchal
A01HQP4D5C5FE93K9PMJKD538R5,United Kingdom,Sutherland,352412,Belfast
A01HQP4D5C6MRRXB3V77YZR1DM1,United Kingdom,Pleasure,27-630,Hull
A01HQP4D5C8HK57CP3AK3C3DZXP,United Kingdom,Moland,R56 8PQ,London
A01HQP4D5CAAB7844AM7220VCRT,Finland,Raven,629008,Lahti
A01HQP4D5CB7TKHQ6DT4YQW4VC9,United Kingdom,Prairieview,M47 4GT,London
A01HQP4D4VXJCQKA77NV3FBQ91D,United Kingdom,Bultman,QA01 7QC,Coventry
A01HQP4D4VY8TA81C6MCW4QW07Q,United Kingdom,Cherokee,BE8 9FJ,Nottingham
A01HQP4D4VZM5840N01SRATT8Q1,Iceland,Tomscot,N2L,K¨®pavogur
A01HQP4D4W0Q1WP9Y4KCNNTFKBP,United Kingdom,Eastwood,FP23 2WC,Sheffield
A01HQP4D4W1717GNJB6FMF5B5MG,United Kingdom,Del Sol,452630,London
A01HQP4D4W2W05172CPX33A26PT,United Kingdom,Loftsgordon,P62 8GI,Belfast
A01HQP4D4W3H22QXDPSVE45PZ70,United Kingdom,Arizona,92393 CEDEX,London
A01HQP4D4W4DFAQQFX2HK550EQ1,Netherlands,Annamark,BV86 4KA,Utrecht
A01HQP4D4W5NBZTKMEYGET2JK6K,United Kingdom,Heath,E3G,London
A01HQP4D4W7MJ82GGE9T859HX1S,United Kingdom,Alpine,21120,Portsmouth
A01HQP4D4W74P7GXCD6DM43GNNF,United Kingdom,Dahle,32127,Liverpool
A01HQP4D4W9KK9P1EG5PC1M9FX5,Italy,Grover,353624,Florence
A01HQP4D4WASZFK6MCMFMWJCHDR,United Kingdom,Truax,644002,Cardiff
A01HQP4D4WBFHB5AW91SPZK8KB6,United Kingdom,Coleman,L40 2YR,Leeds
A01HQP4D4WC58BHP4B380RV10S1,Sweden,Redwing,6203,Helsingborg
A01HQP4D4WD79XWR77CF0W96ENH,United Kingdom,Alpine,55340-000,Sheffield
A01HQP4D4WEVR0VZ4HCREKMMAA3,United Kingdom,Dunning,V2 8RQ,Manchester
A01HQP4D4WF2HE0BAMZ3KWS24JC,Ireland,Golf Course,JH93 5TT,Dublin
A01HQP4D4WG8FYV5YRKJW244DD5,United Kingdom,Elka,IP69 0RH,Cardiff
A01HQP4D4WHRJ3TD69YPF24PJDJ,United States,Weeping Birch,2970-267,"Washington, D.C."
A01HQP4D4WJA58B23DAWVK53JC8,Austria,Shopko,J0 1SM,Villach
A01HQP4D4WKJ40YBMQH498FTGGW,United Kingdom,Harper,S94 3RA,Hull
A01HQP4D4WMR9H5BCVJ0GJ3H1DG,United Kingdom,Dexter,9022,London
A01HQP4D4WN4HFX80CVG90JNDJ7,United States,Eliot,4550,Austin
A01HQP4D4WPEJ0ZFF4JPY6NPMDZ,United Kingdom,Rowland,18290-000,London
A01HQP4D4WQ0BNCPCZ9VTXSX17N,United Kingdom,South,413028,London
A01HQP4D4WRK64KA7SHGZZRW84C,China,Dayton,22212,Chongqing
A01HQP4D4WSKM7HRK76MS8QETW0,United Kingdom,Prentice,P2A,London
A01HQP4D4WT09Y4T38H5ZHGGAVE,United Kingdom,Columbus,1717,Leeds
A01HQP4D4WV9F9WEP9ZWPVMTHN6,Spain,Oxford,601423,Zaragoza
A01HQP4D4WWC28BH5WV1J69VGT8,Belgium,Sherman,QL1 1LO,Namur
A01HQP4D6JF6C0KA90XZC1NKHVK,United Kingdom,Express,7000,Hull
A01HQP4D6JMNQSQ6FWYZYTRDFQX,Spain,Dottie,U92 2NA,Palma
A01HQP4D6JQ1P4ZBB439CHS05X1,United Kingdom,Northfield,231 91,London
A01HQP4D6JTJKZ6593PWYDC32WE,Finland,Larry,32221,Espoo
A01HQP4D6JY5DEM2G87HPVTPTT1,United Kingdom,Hagan,5924,Bristol
A01HQP4D6K19HXRGW04M88F7PXZ,Portugal,Towne,51000,Porto
A01HQP4D6K568RC7GT44ETJX5GE,Scotland,Pennsylvania,AP3 7LM,Kirkcaldy
A01HQP4D6K8C8QB3BF9EG5T834W,United Kingdom,Pepper Wood,513 91,London
A01HQP4D6KCVMTK079T42ARQEW4,United Kingdom,Grover,JX61 0TI,London
A01HQP4D6KFXR9YM3H2AXDT789Y,United Kingdom,Veith,403800,Nottingham
A01HQP4D6KJVY9S43CCTP25C8R0,Austria,Paget,89193,Graz
A01HQP4D6KM454M1ASC2ZHYHG2X,United Kingdom,Sherman,K71 4RF,Birmingham
A01HQP4D6KPQV8N13B9NX37PZ7V,United States,Warbler,ZI6 5LS,Seattle
A01HQP4D6KR0QB0H3V39T7SCX3Y,United Kingdom,Kipling,X63 7CN,Leicester
A01HQP4D6KSDS578MN2SP5MFB2C,United States,Commercial,64-130,Houston
A01HQP4D6KWAFXXZ9KW80KADWNW,United Kingdom,Myrtle,7740,London
A01HQP4D6KY2CW66JYK1G4J5S75,United Kingdom,Gale,FD9 7PT,Nottingham
A01HQP4D6M0Y1P41C7KABS57VHD,United Kingdom,Gateway,3080-222,Birmingham
A01HQP4D6M1JHD284JS4XVDBCGX,United Kingdom,Westend,YF3 8YD,London
A01HQP4D6M31JPWW71HPDEYZMDM,Netherlands,Fairfield,1711,Amsterdam
A01HQP4D6M5N0XP4R9NZZJAF5R5,United Kingdom,Derek,190990,London
A01HQP4D6M6DJY0N0FK8DN55SY2,United Kingdom,Mandrake,9970-244,Leicester
A01HQP4D6M89EEBBXVCCQCAW54D,United Kingdom,Grayhawk,T40 7GO,Bristol
A01HQP4D6MG6QDG2XSRC9SXE70B,United Kingdom,Mayer,8209,Portsmouth
A01HQP4D6MJNSCDJRD23M7A3532,China,Forest Dale,513 01,Beijing
A01HQP4D6MK3BN93ECJQ8E7K4RS,United Kingdom,Hudson,EN27 9EG,London
A01HQP4D6MNYY20GXV58A6D6GJW,France,Kings,PP2 9WB,Nantes
A01HQP4D6MQJYMEWE8YT3TRZVBX,China,Spenser,100 52,Shanghai
A01HQP4D6MR8QKN37ND0CSF3XSB,United Kingdom,Fordem,65480-000,Sheffield
A01HQP4D6MTJF3NN7HMVBR9KNM0,Spain,Victoria,F51 1XH,Seville
A01HQP4D6MVQP06D5BCM6FADF4Q,United States,Arapahoe,35890,New York City
A01HQP4D6P0Z88ZPEGAV6CZZ8Z5,United Kingdom,Cordelia,78490,London
A01HQP4D6P2HCRXRTFMB2Y778DC,United Kingdom,Mcbride,U6 2WH,London
A01HQP4D6P4NPDXRNPWZJWSP8K4,United Kingdom,Pepper Wood,66622,London
A01HQP4D6P5WBMB22JXPW1FXS80,United Kingdom,Bartillon,J0 6FH,Edinburgh
A01HQP4D6P7W40W0GW86W2YWJ8M,United Kingdom,Vernon,5914,London
A01HQP4D6P93RM5QBTJQ649Z1M9,Belgium,Waxwing,2420-031,Leuven
A01HQP4D6PF2Q2V7C9HCXEHXGV7,United Kingdom,Blue Bill Park,FO02 3AE,Leicester
A01HQP4D6PHYV1NQ1XVZE9NSMSE,United Kingdom,Sommers,O16 2JS,Nottingham
A01HQP4D6PK41GC568FNYH0HD7H,United Kingdom,Vidon,9222,Leeds
A01HQP4D6PMTV5B8EJWQEWV1Y7V,Belgium,Knutson,Q5 3UW,Aalst
A01HQP4D6PPBEXTSZPKWH64AYTT,United Kingdom,Nova,2785-025,London
A01HQP4D6PR18JT16051Y0PHSNN,United Kingdom,Larry,B35 9WK,Glasgow
A01HQP4D6PWK3AEGXMJC74W36C6,United Kingdom,Tomscot,AV21 2AB,London
A01HQP4D6PYA2F0A1EZRM9CTFN8,United Kingdom,Northview,HZ86 7CV,London
A01HQP4D6PZNPS3B58RNHY06J7Y,United Kingdom,Veith,VX1 4NH,London
A01HQP4D6Q1GPAVF878R0AK6CMX,United Kingdom,Forest Run,WE09 8YK,Edinburgh
A01HQP4D6Q2668QNQZEHKB4YVW8,United Kingdom,Pennsylvania,Z73 2GA,Southampton
A01HQP4D6Q48A6JB99DVVEYGWBQ,Italy,Artisan,MZ90 6UF,Rome
A01HQP4D6Q6B2MT1KEZV1SN7MJM,China,Rieder,3712,Beijing
A01HQP4D6Q7JA9HNFVEFFVH8S3R,Norway,Pearson,MF7 0PV,Drammen
A01HQP4D6Q9M38Q7XWCW1E8MH3Z,Finland,Mandrake,HN97 8HY,Kuopio
A01HQP4D6QAR0FJ1J773NFRK3TC,Germany,Moose,T2 7BA,Cologne
A01HQP4D6QCVYC8C5YEGSZD8WF1,United Kingdom,Basil,W3 6DM,Manchester
A01HQP4D6QDTH1N8S7NHYD1G2S7,Northern Ireland,Washington,10607,Carrickfergus
A01HQP4D6QFJ07JFR8FV3YHXJWG,United Kingdom,Dayton,YM98 7GY,London
A01HQP4D6QG7WSNWEBFZS6GHGFB,United Kingdom,Kenwood,11-440,Coventry
A01HQP4D6QJX1QXBMPQHVM7DCAW,Switzerland,Novick,7933,LaUnited Statesnne
A01HQP4D6QKRR046CBBFNFZA5NR,China,1st,8223,Chengdu
A01HQP4D6QNN7MAY25SER5DJNR7,Switzerland,American,4905-014,Lugano
A01HQP4D6QPZC5DVTN72QAZ7PQK,United Kingdom,Old Gate,S6 2WZ,Manchester
A01HQP4D6QRRCZ480H655ENX9VS,Italy,Waubesa,F3 9QP,Naples
A01HQP4D4KWJN8EV22YYYREK0R9,United States,Stang,2510-037,New York City
A01HQP4D4M0RFRS6AQGT047NA6Z,Austria,Grover,694 24,Salzburg
A01HQP4D4M4BS462897896GE1TX,United States,Ronald Regan,22840,"Washington, D.C."
A01HQP4D4M7HZVV7KW8WVVY0JJZ,United Kingdom,Manley,611 24,London
A01HQP4D4MAJVHSJCFAABCZ2SAJ,United Kingdom,Boyd,UC44 5IA,London
A01HQP4D4MDJ22C98KNN1KXP2FC,United Kingdom,Golden Leaf,371,London
A01HQP4D4ME57GNXNN4QM0RG1FC,United Kingdom,Pine View,NS1 0TD,London
A01HQP4D4MG9BTDRBZJXPMMCKZR,Wales,Badeau,188855,Bridgend
A01HQP4D4MJ47MGZ929EYG391JR,United Kingdom,Pankratz,Z45 3SC,Leeds
A01HQP4D4MMTSY7TJXMS8T3XY9F,South Korea,Karstens,G6 8YX,Ulsan
A01HQP4D4MNP8SY9DZ5C1Y6P509,United Kingdom,Melrose,5152,London
A01HQP4D4MQ29SBEF8YQX93MF4C,Portugal,Lukken,U7 1VR,Set¨²bal
A01HQP4D4MSY256KEFQSG3BTKSS,United Kingdom,Dexter,368150,Bristol
A01HQP4D4MV3T2RE094CYEXB2GK,United Kingdom,Vernon,10807,Portsmouth
A01HQP4D4MWPEZXZN1NSQERHH18,United Kingdom,Columbus,35160-000,Leeds
A01HQP4D4MY52KDVHSN3WJPM9R1,United Kingdom,Londonderry,JO5 7AX,Belfast
A01HQP4D4N0MTZJXKCW4H9NGQ9B,China,Amoth,E8 7JO,Nanjing
A01HQP4D4N1Q2PAPXNDJ6VXBTAJ,Norway,Hazelcrest,54009 CEDEX,Trondheim
A01HQP4D4N38YV7Y0DZ445A5521,United Kingdom,Susan,T88 3CG,London
A01HQP4D4N57P44SKWR6SQ8Q9HB,United Kingdom,Delaware,XH4 7FD,Bristol
A01HQP4D4N6YSZBB39DD8596DDA,United Kingdom,Sunbrook,518-0875,Sheffield
A01HQP4D4N8Z7G3QNS18HAK9MJP,Switzerland,Waywood,11604,Bern
A01HQP4D4NAAFN7M2M0MSAQVJXB,Iceland,Erie,9220,Gar?ab?r
A01HQP4D4NBPDCJZCRPKNDE5713,Finland,Shoshone,30674,Helsinki
A01HQP4D4ND5DGQ95P9ZYWKAYPH,Sweden,Walton,658810,Uppsala
A01HQP4D4NF8C9Y92K5AF672ME7,United Kingdom,Sloan,K64 7YK,Southampton
A01HQP4D4NGWCETR1RWR1VXM529,United Kingdom,Ludington,OS97 2RJ,Sheffield
A01HQP4D4NJRSFE84EX528YB4MF,United Kingdom,Oriole,215,Manchester
A01HQP4D4NMFB1JZ8TPG7DS2S11,United Kingdom,Graceland,HL66 5QT,Birmingham
A01HQP4D4NP48QTBHG3J311TMC2,Wales,Moland,93691 CEDEX,Llanelli
A01HQP4D4NRDW1PXB9ECGZG0DVD,United Kingdom,Carpenter,AE91 6OH,Newcastle upon Tyne
A01HQP4D78TZCX81X42WB78345R,United Kingdom,Hoffman,B28 6YO,Reading
A01HQP4D78WKYWDEGCJE8SH61MC,United Kingdom,John Wall,PH8 4WP,Manchester
A01HQP4D78XSA9AWKBD9EJH79WH,United Kingdom,Pond,152,Coventry
A01HQP4D78ZXYGSBEC4REZB032Y,Spain,Rusk,3297,Palma
A01HQP4D791TPC18S6BK5F1P1BW,United Kingdom,Coleman,11130,London
A01HQP4D792GTC7SCF65QYSTQ4E,China,Delladonna,10801,Beijing
A01HQP4D794Z3DR4KP7AWJTKVKX,India,Quincy,7504,Ahmedabad
A01HQP4D795SKHXG9ACSF1V25E3,Germany,Quincy,B87 3GX,Dortmund
A01HQP4D797T67TNM63NP3JP21X,Austria,Lighthouse Bay,KV9 5UJ,Innsbruck
A01HQP4D798WSB8VNPPPHYSPHYY,United Kingdom,Twin Pines,R2 1ZH,Newcastle upon Tyne
A01HQP4D79ARNP1W1QR0TD9TZB5,Portugal,Stone Corner,658065,Braga
A01HQP4D79B7B2HP53PHTNFKWBM,United Kingdom,Comanche,853-0704,Manchester
A01HQP4D79DCYY3RMMTTE26S1QR,Switzerland,Lillian,96928,Lucerne
A01HQP4D79E2Q38VWJC47QXSWKV,Austria,Mayer,MH56 0NG,Linz
A01HQP4D79GMACY6B091Y86JFQ8,United Kingdom,Debs,6334,Leeds
A01HQP4D79H6FYF1FJBR8NKJBAC,Netherlands,Vidon,H90 6WL,Breda
A01HQP4D79K1Y43991ZMVTFVEXY,United Kingdom,Towne,4835-541,Cardiff
A01HQP4D79MK6YVPAGWW38ECQG2,United Kingdom,Harper,K7V,Coventry
A01HQP4D79PWPXRJNFASHJCWKQZ,United Kingdom,New Castle,161140,Birmingham
A01HQP4D79RCQFK9AK3EM5YBVGD,United Kingdom,Londonderry,SQ90 0RR,Portsmouth
A01HQP4D79S0V7WGER3B3D3Z2RE,France,Carey,162673,Strasbourg
A01HQP4D79V3JZ4HYEXME27YHJQ,United States,Bellgrove,JJ8 2WW,Chicago
A01HQP4D79WJMD7CN7EF3BJ6VD4,Austria,Farmco,RL47 3TW,Vienna
A01HQP4D79X8DSR8JMMMJZSSRJS,United Kingdom,Nobel,18800-000,London
A01HQP4D79YW57ABEGAZ0GA3ZZY,United Kingdom,Novick,262 80,Leeds
A01HQP4D79ZZ9615DKHBV7404FJ,Denmark,Cambridge,EB25 1JI,Gentofte
A01HQP4D7A06T5V0CVJDKRT5KV8,Spain,Sherman,86054 CEDEX 9,Barcelona
A01HQP4D7A1Y09EDEC7ACF0C9Q8,United Kingdom,Crownhardt,V7 0BK,Nottingham
A01HQP4D7A39P0P1D5XK0QKDJYZ,Germany,Washington,P4 3WC,Frankfurt
A01HQP4D7A5YJAFRYAPG8S7ZJTD,United Kingdom,Macpherson,J9 6BR,Aberdeen
A01HQP4D7A7NHVZEW25GDVPJHYS,United Kingdom,Mallard,747 33,London
A01HQP4D534AMED8FCR3VRVT8H2,United Kingdom,Memorial,CH80 6HA,Manchester
A01HQP4D537NN4G30BJC2EE8324,Austria,Dorton,C1 3HT,Salzburg
A01HQP4D53AEZ373DTF7HQEQ8A1,Spain,Chinook,R26 2NG,Zaragoza
A01HQP4D53CCA5H6JT37T766HXV,United Kingdom,Coolidge,O6 7HA,Southampton
A01HQP4D53FAMBW98YMSJB2Q38T,United States,Monument,Y5 8JZ,New York City
A01HQP4D53HMQYWWEMKH95JM87J,United Kingdom,Reindahl,LH66 0ZY,Manchester
A01HQP4D53MKKN9H2FM2RC6CZ5E,Northern Ireland,Victoria,KC50 3CN,Lisburn
A01HQP4D53PGSEARGGQK2RQKNCZ,United Kingdom,Lerdahl,51601,London
A01HQP4D53RV4KCYWEYW4D1KH3A,Switzerland,Rockefeller,81506 CEDEX,Bern
A01HQP4D53T6ZRWE252GCPB411Q,United States,Mcbride,W17 7TX,Seattle
A01HQP4D53XJJF91082R462FZ28,United Kingdom,Crownhardt,27260,London
A01HQP4D53Z2YVHDAZTFJD0438T,Germany,2nd,VR8 2EU,D¨¹sseldorf
A01HQP4D541H57DHFDDVRYTFRGK,Sweden,Petterle,4950-703,Gothenburg
A01HQP4D5442Y7WW1GGBACC53NP,United Kingdom,Duke,Y39 2CV,Hull
A01HQP4D546K2AXK0R1XXD37G1K,United Kingdom,Anhalt,MD6 8SM,Reading
A01HQP4D548R3EB3VWBSCJVEB6W,United Kingdom,Haas,3100,London
A01HQP4D54ARTAPR25KY7W60EWH,China,Dovetail,VU3 2WT,Wuhan
A01HQP4D54BZGMB2E5HJ13W460W,United Kingdom,Ridgeview,31110,Leicester
A01HQP4D54DPQVEMSXBGQQ73XFR,India,Dottie,794,Kolkata
A01HQP4D54F1FP8FYXKN349T6KG,United Kingdom,Bowman,86083 CEDEX 9,London
A01HQP4D54HF1N8MK7MHKFJ11NV,United Kingdom,Muir,X6 7FX,London
A01HQP4D54JBHRN0WKMF9KCCH64,United Kingdom,Cardinal,21-404,London
A01HQP4D54MX9HBVBV1GTGNVRS3,United Kingdom,Magdeline,KW05 9VJ,London
A01HQP4D54P3RN3MK118PAWYYQK,Belgium,Tennyson,IY93 4IS,Ghent
A01HQP4D54RR7VSMZWXAC9VX8QB,United Kingdom,Ridgeview,B6 0CG,Coventry
A01HQP4D54S2TR2YTPPTF73FKMM,United Kingdom,Burning Wood,M18 4AJ,Glasgow
A01HQP4D54VYC92C0STGV3G0QTP,United Kingdom,Oneill,I1 7WF,London
A01HQP4D54X29J00GVKTFMTQWK9,China,Grover,GP11 4WZ,Shanghai
A01HQP4D54YSMQP43EP8TNQJD6D,United Kingdom,Johnson,Y5 3CN,Bristol
A01HQP4D54ZK59EDDW3BQM1VJ1Z,United Kingdom,Hanover,S91 2AL,London
A01HQP4D5504BH6SBMYKSRJDJMH,United Kingdom,Dayton,A21 6RL,Edinburgh
A01HQP4CZRFKDNFC0C32JWJQ8MJ,United Kingdom,Prentice,47600-000,London
A01HQP4CZRKXSAA26F96H4ZVFFS,Northern Ireland,Arkansas,6344,Castlereagh
A01HQP4CZRNT5AHPHSHC6E9MN27,United Kingdom,Golf,GZ37 8CY,Newcastle upon Tyne
A01HQP4CZRRZBQWP6DFDMQH5YW4,United Kingdom,Shopko,164020,Leeds
A01HQP4CZRTG3C2Q7YT1XF4FB24,United Kingdom,Buell,S54 1VQ,London
A01HQP4CZRWFWBFMES4C8NXFR4W,United Kingdom,Kipling,S2 2VY,Cardiff
A01HQP4CZRZE1MF5H9EQ9S8HC4P,United States,Morrow,C14 4GB,"Washington, D.C."
A01HQP4CZS21RC51RBV566WXWVX,United Kingdom,Amoth,83320-000,London
A01HQP4CZS4G5XQQ535V2FX4T8B,United States,Pine View,HW7 4RS,Houston
A01HQP4CZS6TAB42VFCJJSEYVA9,Netherlands,Spenser,S24 6HP,Nijmegen
A01HQP4CZS9PD19FKHFBFRKGD0B,United Kingdom,Corscot,Z26 7QG,London
A01HQP4CZSCTBKSQFCEJ353C244,United Kingdom,Toban,10030,Glasgow
A01HQP4CZSEMT27PCR885R67G5E,Denmark,Sloan,M9 5MN,Kolding
A01HQP4CZSH057MT75XN62G6298,United Kingdom,Parkside,YU88 4VV,London
A01HQP4CZSK1CGWZQRE5C2KJS7F,Austria,Caliangt,L-5754,Villach
A01HQP4CZSP222FPEQ23GTSQ51T,South Korea,Trailsway,LV37 6GE,Seoul
A01HQP4CZSS4YM9NTD1VEAA7N5W,United Kingdom,Norway Maple,527-0087,Belfast
A01HQP4CZSVVZD8KMYB6X1KFC15,United Kingdom,Sunbrook,ON06 9NW,Hull
A01HQP4CZSYTYTH0P6MTCP8EERM,Belgium,Sachtjen,U6 6MO,Brussels
A01HQP4CZT0W140ANJBYZ815JEB,United Kingdom,Montana,69000-000,Sheffield
A01HQP4CZT34M8A42CQY33KHS23,Belgium,Northport,94631 CEDEX 1,Charleroi
A01HQP4CZT68YPNV9P8ZWCJHPST,United Kingdom,Brown,NS28 0IM,Cardiff
A01HQP4CZT8AWRAFD36CATBH1JF,Sweden,Fair Oaks,9201,Stockholm
A01HQP4CZTBCJ4YRSHQPSGNPQCT,Scotland,Lunder,L-4354,Edinburgh
A01HQP4CZTDY0XFPV2F9Z3SRH2E,United Kingdom,Helena,NW5 0PH,Manchester
A01HQP4CZTFTG4F9BVRQ2PKTDWY,United Kingdom,Sunbrook,650,Birmingham
A01HQP4CZTGP0AP9P8NGRP3G5E1,United States,Charing Cross,2405,New York City
A01HQP4CZTJ22JDPA0859N501FB,United Kingdom,Declaration,753 62,Edinburgh
A01HQP4CZTM8W68DCXCKRCGTJVD,United Kingdom,Granby,J4 2AP,Edinburgh
A01HQP4CZTNZ7C1EG36C4ADQYQP,United Kingdom,Grim,TH8 7KW,Leeds
A01HQP4CZTQM1GGNF702TD5X3DR,United Kingdom,Dottie,XE00 4CD,London
A01HQP4D2T80HNT1JAF6CQ32KRD,United Kingdom,Sunfield,164 91,London
A01HQP4D2TBYAWYY5AFYS7SK90T,United Kingdom,Northfield,96960,Glasgow
A01HQP4D2TEBVRBKV3W36JW8970,Germany,Summerview,N92 9LE,D¨¹sseldorf
A01HQP4D2TGNHS6GGJ9SWN2YKAN,United States,Cardinal,63-460,Fort Worth
A01HQP4D2TJ2QRVTJPQE30F821C,United Kingdom,Manufacturers,H4 2FB,Manchester
A01HQP4D2TMV6QTFY71HRC7NRH1,United Kingdom,Florence,W7 2RZ,London
A01HQP4D2TP66E56ZJRC48SKK77,United Kingdom,Chive,SE7 0PR,Coventry
A01HQP4D2TRK6TEP49N4CH3915P,Italy,Boyd,GE37 0EG,Milan
A01HQP4D2TTE0D9HZSECY4VWVAF,United Kingdom,Cambridge,LM09 6BJ,Aberdeen
A01HQP4D2TW6K75NCE477A9N86G,Denmark,Burrows,1135,Aalborg
A01HQP4D2TY1JZT2RDSN0GC7XMM,France,Springview,UO2 1NV,Nice
A01HQP4D2V199M8W9PAVG7QWFPP,Belgium,South,SC3 8EN,Mons
A01HQP4D2V358RB2397DG2K78YF,United Kingdom,Alpine,183 65,Edinburgh
A01HQP4D2V5AXN6ZN8RF1FPZ2M6,United States,Westend,39440-000,Charlotte
A01HQP4D2V72D1461KYDFR6C8GC,United Kingdom,Mockingbird,IA0 5MA,Bristol
A01HQP4D2V9FPZ4D6NJFB3E0EY1,United States,Truax,HJ14 9RE,Jacksonville
A01HQP4D2VBVN6GK9QJ0Y1HAKST,United Kingdom,Loftsgordon,48120,Nottingham
A01HQP4D2VEC6ZQV5SZN1WD45A7,United Kingdom,Oak,301767,London
A01HQP4D2VG10065GP60QK4M8YM,United Kingdom,Harbort,CF5 8VT,London
A01HQP4D2VJ6T87S46JE8N03AGF,United Kingdom,Ronald Regan,R8 3QL,Birmingham
A01HQP4D2VMM100ERKDQ0GS7G0X,Wales,Charing Cross,602 24,Newport
A01HQP4D2VP32P3WH92TQT40T4Y,Netherlands,Thackeray,LS5 2LL,Groningen
A01HQP4D2VR91YDK4EYJRYD81YN,United Kingdom,Bashford,14790-000,Coventry
A01HQP4D2VTA5RGH747FM63JYYA,United Kingdom,Oxford,55515-000,Edinburgh
A01HQP4D2VWPGW3D2Q0R3VMVSPK,Scotland,Waywood,32-765,Inverness
A01HQP4D2VXMCFZ9641TANEXEK4,United States,Kropf,S3 5KB,Fort Worth
A01HQP4D2VZYR34GJH15YNZTNJZ,United Kingdom,Golden Leaf,06182 CEDEX 2,London
A01HQP4D2W1N72K3P4X0W3YJNV2,United Kingdom,Emmet,70593,London
A01HQP4D2W3CVBXXZ9ZC6J1HPQA,United Kingdom,Lighthouse Bay,F3 6ZP,Leeds
A01HQP4D2W4ASKT45D3ASGG4B4N,United Kingdom,Continental,DI8 8SO,Edinburgh
A01HQP4D2W6QTQ3Z8271KS5PJ6K,Finland,Farmco,KQ8 8OL,Jyv?skyl?
A01HQP4D3YRRSGHMMABAHXGDBJ0,Denmark,Melby,403 39,Gladsaxe
A01HQP4D3YV46Z93PZWBVQZNVYD,Italy,3rd,35435 CEDEX,Genoa
A01HQP4D3YYMY5N7RW55KG2H14D,Scotland,Lerdahl,ST8 9NX,Perth
A01HQP4D3Z0Q64DGDXXQ41Q7XNS,France,Hooker,K08 8WX,Bordeaux
A01HQP4D3Z2VM64A7KH8K6X17W0,Sweden,Maywood,J17 5YR,Norrk?ping
A01HQP4D3Z4M9KA8T4Q7EC7W42B,United Kingdom,Northport,789 01,Bristol
A01HQP4D3Z74YV85J7FE7QK71G4,United Kingdom,Meadow Valley,G82 2UN,London
A01HQP4D3Z9CWYBZKPMMM3F4T7W,United Kingdom,David,6401,Coventry
A01HQP4D3ZB6W8PZM6DDRNBMMJF,United Kingdom,Gateway,391710,London
A01HQP4D3ZD9ZFXYVMB4G2DSCQB,United Kingdom,Onsgard,BD09 4JX,Leeds
A01HQP4D3ZF33XQ3K69D32JHA1P,United Kingdom,Katie,F2 0YL,Birmingham
A01HQP4D3ZHX6Q8HT4BYDQ32SKX,France,8th,R07 8BC,Lille
A01HQP4D3ZKKCESPDJ50PQ66AE1,Italy,Veith,AW49 2PO,Palermo
A01HQP4D3ZP519AKKARPX46DK6T,Switzerland,Carberry,73209 CEDEX,Lucerne
A01HQP4D3ZRCG0P7BTEAK9W7GXK,South Korea,Thackeray,P72 3SC,BUnited Statesn
A01HQP4D3ZTMYN2HNG2Q0NEC1HC,United Kingdom,Daystar,2912,Glasgow
A01HQP4D3ZXB3V4KFR9YNFAPECK,Netherlands,Clarendon,L9S,The Hague
A01HQP4D3ZZ8CGVZG8XKABW711C,United Kingdom,Laurel,5602,Coventry
A01HQP4D40177G35BVC4J35BECE,United Kingdom,Village,752 01,Leeds
A01HQP4D4031Y2Z1Y6SRX31JD01,United Kingdom,Shelley,MD55 2YU,Reading
A01HQP4D406CYBHTRQ4CGSKRV62,United Kingdom,Butterfield,98824,Southampton
A01HQP4D4085SNCVWB1CWKSHY49,United Kingdom,Nevada,H4 2LG,Aberdeen
A01HQP4D40ACB50TCBS6Z3ZVC2G,United Kingdom,Manley,13540,Manchester
A01HQP4D40C72XTQ4XT96EKJAVB,Switzerland,Sunfield,34-321,Winterthur
A01HQP4D40EBTTZYRQRRWC4SFFB,United Kingdom,Bartelt,QB7 0BJ,London
A01HQP4D40FG2ZAAW8E4DE8DF95,United Kingdom,Sutherland,47134,Nottingham
A01HQP4D40HN0ZQV0X8A7X9P3J7,Ireland,Lerdahl,307450,Navan
A01HQP4D40KWRK2DHSQQV1HHRXH,United Kingdom,Fallview,FM27 0NK,Birmingham
A01HQP4D40MNYJNVB84QQY9A4HX,France,7th,KH3 7NS,Lyon
A01HQP4D40P08Y9RY57YCKMVT1V,United Kingdom,Eastlawn,31761,Portsmouth
A01HQP4D40QK0TH0TB67TSYEQGG,United Kingdom,Hovde,K5 2UQ,Newcastle upon Tyne
A01HQP4D592KSP10HK1VB4WCSZP,United Kingdom,Delladonna,EQ84 4KX,Birmingham
A01HQP4D594DB2PN5WW6JYV73A6,United Kingdom,Clove,77484 CEDEX,Manchester
A01HQP4D5960KBFETVPKBR9C9DS,Germany,Muir,MT34 3FJ,Cologne
A01HQP4D598K97JTYG4BZ2JGFEJ,United Kingdom,Cardinal,9512,Sheffield
A01HQP4D59B89MA8W9VVDJ92BQC,United Kingdom,Arrowood,QK44 9SK,Southampton
A01HQP4D59CFVGRPX44DVPGF45Z,Germany,Waywood,B23 9DD,Munich
A01HQP4D59G42V758BMGVQJDBTE,China,Mallard,AY0 4DQ,Guangzhou
A01HQP4D59JFMCZ34RSMVMJ8V37,United Kingdom,Holy Cross,Y4 8FI,London
A01HQP4D59MPXE11H1K0E9GXYDN,United Kingdom,Sherman,C0 2FR,Sheffield
A01HQP4D59PPKPF30MRJRZMEXVX,Ireland,Northland,M94 0FO,Drogheda
A01HQP4D59RK7JT6QBNAADVD718,United Kingdom,Brown,3120,Aberdeen
A01HQP4D59SV74AKEW69M6MAY9T,Portugal,Annamark,64-234,Porto
A01HQP4D59V5WSQ0CBCW5FQTAXN,United Kingdom,Cordelia,30160,Bristol
A01HQP4D59XVYDQ70EJ0VWVVRAW,United States,Amoth,V05 0VF,Los Angeles
A01HQP4D59Z10BYY3VQM5VKZVNG,United States,Vahlen,391 61,Chicago
A01HQP4D5A02YX4KJF6TXW5YQTZ,United Kingdom,Elmside,175147,London
A01HQP4D5A2AQ4FYNP75GXNCG87,United Kingdom,Heffernan,Z9 2IU,London
A01HQP4D5A4Y9E0QM299PHEAZC3,Austria,Jenna,6017,Wels
A01HQP4D5A5EB4MRGAFXD0J2501,Ireland,Cordelia,R96 8SY,Galway
A01HQP4D5A7YS92QJHPFD5B6XHC,United Kingdom,Del Mar,FH50 3FZ,Edinburgh
A01HQP4D5A94QWDV58YBY2C66VB,United Kingdom,Drewry,111711,London
A01HQP4D5AAKXT764F6G1F7NKSW,India,Logan,G40 2HQ,Jaipur
A01HQP4D5ACGHDYQWE5VF2QS399,Iceland,Bluejay,3308,Fjar?abygg?
A01HQP4D5AE1EYB9SAWWHVV8PRX,United Kingdom,4th,NX2 0XO,Leeds
A01HQP4D5AGJSFF4QQ7P64828RG,United Kingdom,Granby,9214,London
A01HQP4D5AHK914V400RDT9ZRY9,United Kingdom,Basil,X8 0HA,London
A01HQP4D5AKQQJVWK60G5NJJFEG,Netherlands,Jenifer,BE29 3XV,Groningen
A01HQP4D5AM61PXPXZJT7GC0MTC,United Kingdom,Dahle,982 81,Manchester
A01HQP4D5APNG4GPY8M0TR6ZT21,United Kingdom,Eliot,P0 0RJ,Edinburgh
A01HQP4D5AR9XB53Z74GNEHZ11V,United Kingdom,Hansons,K1 8QN,London
A01HQP4D5ATHKWYY7S2SKGZ8Z78,United Kingdom,Delaware,R3 7XE,London
A01HQP4D507VJM0BBS21WNH8CWP,United Kingdom,Rutledge,13220,Leicester
A01HQP4D50AY6YE362S7XP8GH76,United States,Rusk,9220,New York City
A01HQP4D50B56SP473FA7WAVPDZ,United Kingdom,Mcguire,2011,Glasgow
A01HQP4D50DVCBZTDDK6VKETCDG,United Kingdom,Oak Valley,J3 6VL,London
A01HQP4D50FH3JF0SHJ583XWP1K,United Kingdom,Meadow Valley,3609,Reading
A01HQP4D50G5C7ZJWTP5BXRNTTY,Japan,Eastwood,K62 1PQ,Kyoto
A01HQP4D50JYZ532Q8MWD0PKX1A,United States,Farmco,FD4 9HV,Columbus
A01HQP4D50MPKTFX2F1TWNF75VK,United Kingdom,Quincy,WN2 0BO,Aberdeen
A01HQP4D50P1KKK7JRN3YHKE0P2,Norway,Carey,612-8447,Sarpsborg
A01HQP4D50QG393SJ2G5PPTFBN8,United Kingdom,Gale,96310-000,Glasgow
A01HQP4D50S26C2DZXFDZV3WQ50,India,Vernon,EE0 0ZR,Chennai
A01HQP4D50X4YVYN2NPWPBZT43B,United Kingdom,Petterle,62-056,Manchester
A01HQP4D50Y527WKGT8R844JFNE,United Kingdom,Main,KE2 9MY,Leeds
A01HQP4D5106VVKP4HG2DGX9FWF,United Kingdom,John Wall,SB08 2RI,London
A01HQP4D512ANPFYF0NYHXM8W02,Belgium,Pierstorff,747 30,Li¨¨ge
A01HQP4D513XCF5AKNGWF3QWA4Q,Belgium,Carpenter,ZZ57 3BA,Namur
A01HQP4D515DXAG2CFM6TNQC0T4,United Kingdom,Sutherland,GG49 0JY,London
A01HQP4D517PJH9FMCQNW9F4YKD,Spain,Northview,303580,M¨¢laga
A01HQP4D51851DHW22Y9GJFKCYD,Portugal,Nova,72089,Vila Nova de Gaia
A01HQP4D51ABZ5ZKZXTV4BWC55F,United States,Eastlawn,U64 1HO,Philadelphia
A01HQP4D51C0D1QPNVCRZQYFN7S,Spain,Fair Oaks,4930-250,Madrid
A01HQP4D51D5MN7QB6BYMCQ6T5R,Sweden,Fuller,431890,V?ster?s
A01HQP4D51G53538HX1ANJM14NV,United Kingdom,Brickson Park,6818,London
A01HQP4D51HMDQXEC94VY7TK73Z,United Kingdom,Comanche,GN78 2VW,London
A01HQP4D51KNRW9VE3R05J0WYRJ,United Kingdom,Mayer,C08 5MO,Sheffield
A01HQP4D51NB5A44BPCS6Q0JCKM,United Kingdom,Sheridan,24-170,London
A01HQP4D51P5ES647J0FS3YG966,United Kingdom,Mallard,86165-000,London
A01HQP4D51RPR56N0QSVNM9KCZ4,Northern Ireland,Canary,5100-724,Belfast
A01HQP4D51TJPT7TH0Q3ZBSWPVS,United Kingdom,Schiller,303036,London
A01HQP4D51WQDTZ6DED5MDXFWRM,Sweden,Union,2635-121,Stockholm
A01HQP4D346QJPYJ2VW08DB5JTT,United Kingdom,1st,79050,Edinburgh
A01HQP4D348KCZ30589YVKH1516,Finland,Twin Pines,05-340,Vantaa
A01HQP4D349292NVHR06QC3HY7K,United Kingdom,Chive,IS5 8KY,Bristol
A01HQP4D34ANTBFNY3S5RDY569Z,Netherlands,Mifflin,7104,Almere
A01HQP4D34BADQXT17J1CPQ64S2,Iceland,Melrose,74-500,Mosfellsb?r
A01HQP4D34CV3GQBYAHVTT6CMM8,Germany,Pearson,SU1 5XU,Frankfurt
A01HQP4D34DBX789YTJ5QZ5TAE7,China,Center,L9 4TD,Suzhou
A01HQP4D34F50C7AETX004310EW,United Kingdom,Chive,231 23,Birmingham
A01HQP4D34GGQF8RZXYP5JGQXWP,China,Nancy,4004,Beijing
A01HQP4D34JP8WD424W9QVT533X,United Kingdom,North,L-9184,Southampton
A01HQP4D34KBXWXSWGN70Y4ESV8,United Kingdom,8th,W0 1ES,Leeds
A01HQP4D34N34JG18P57D66YZ67,United Kingdom,Orin,814 41,London
A01HQP4D34PYQCNK67K7G8KNWJC,Italy,Corscot,386250,Turin
A01HQP4D34RKAV4GDSA9N6E7Y2X,Italy,Brentwood,G74 6PL,Florence
A01HQP4D34S025NMW4GHSJHW11A,Spain,Kensington,MD-3730,Bilbao
A01HQP4D34VW2552RPNPAPM8HZA,United Kingdom,Eagle Crest,S79 5JH,Edinburgh
A01HQP4D34WPH9P66T5152CCDXT,United Kingdom,Ramsey,FS6 0VU,London
A01HQP4D34Y6W3HTEBCSDMN2BGP,United Kingdom,Spenser,WS3 0FE,Liverpool
A01HQP4D350AHTRYFVB9SVSDPK2,United Kingdom,Scoville,45016 CEDEX 1,Aberdeen
A01HQP4D351VTSNMHXMR0Y9X45X,China,Service,705079,Shanghai
A01HQP4D353XR33VV03TP0MVW17,Spain,Sauthoff,216507,Seville
A01HQP4D356C7GEGRWMGRB272KF,United States,Oneill,141160,New York City
A01HQP4D3574CSG2RBDJSC253DT,United Kingdom,Schurz,GZ4 4MH,London
A01HQP4D359C5S0WB10YRYQSCJD,United Kingdom,Homewood,A71 3HX,London
A01HQP4D35AGTABNVNP2M12GX45,United Kingdom,Wayridge,V8 6DR,Leeds
A01HQP4D35C7VS8MZRAY441YPZN,India,Mesta,21410,Delhi
A01HQP4D35D0Q0TV7MWYAAZ5AYB,United Kingdom,Claremont,34-651,Nottingham
A01HQP4D35FX75QXTVHYZSQYMG5,United Kingdom,Nancy,LK70 6BJ,London
A01HQP4D35HCVSN92X24BANH67W,Austria,Mockingbird,162250,Graz
A01HQP4D35JZBWJFRM88TVSA4R2,United Kingdom,Esker,DF25 8XP,Manchester
A01HQP4D1B27FPFZV8AC20YY2DV,United Kingdom,Bayside,197758,Sheffield
A01HQP4D1B6YJ7VAT3ZPMK8DM7M,Sweden,Jackson,07204 CEDEX,Gothenburg
A01HQP4D1B9M1X8YQ1MFP6WCN0J,United Kingdom,Buena Vista,I6 2XJ,Newcastle upon Tyne
A01HQP4D1BD17FBQSWR8QFP31EW,United States,Chinook,XX10 8PE,New York City
A01HQP4D1BGRZNWZN127JZMF627,Germany,Moland,76152 CEDEX,Essen
A01HQP4D1BJ5BZ086QEWK17PS2F,Netherlands,Randy,678214,Almere
A01HQP4D1BRZWF6W283CNBWBXY5,United Kingdom,Debra,67391,London
A01HQP4D1BV1NAM7YEDE7STJ8FH,United Kingdom,South,C78 2KK,Coventry
A01HQP4D1BYD4YB12R19215HC46,United Kingdom,Anhalt,634510,Newcastle upon Tyne
A01HQP4D1C01PTR7191HA9P5S6B,United Kingdom,International,AH4 2GM,London
A01HQP4D1C2TQDWW3YS72DMEYCT,India,Kings,44629,Bengaluru
A01HQP4D1C43JTPQ0GFBB6V6PBV,China,Hoffman,IU86 8YW,Chongqing
A01HQP4D1C5VFA4DMEFKJKWTG7D,United States,Kennedy,SI70 9GP,Philadelphia
A01HQP4D1C72DXR6YYEW50ENRR2,Netherlands,Redwing,1707,Breda
A01HQP4D1C9F75RFK379ZW9RQE3,United Kingdom,Kingsford,3520-031,Glasgow
A01HQP4D1CBV4FC7XMQ86VSWBZ4,Belgium,Dapin,42000,Antwerp
A01HQP4D1CCV1BKVEDZXFRCKFAG,United Kingdom,Thackeray,JS47 0AO,Liverpool
A01HQP4D1CEZHMWNFS39E71ZBXD,United Kingdom,Comanche,83600-000,Leeds
A01HQP4D1CFT83HT52FJ09GQZGG,United Kingdom,Kings,429959,London
A01HQP4D1CHSYP6DXFG5MH6GR8E,France,Esker,725 91,Toulouse
A01HQP4D1CKPXNKVGJ9H70NEBJW,United Kingdom,Sunfield,RX3 6BN,London
A01HQP4D1CNJJ1KV7JV6DSXA4NZ,Japan,Bowman,56-306,Saitama
A01HQP4D1CQZQAGYYJ5HPBD1K2A,United Kingdom,Goodland,DQ6 7SG,Edinburgh
A01HQP4D1CSN7RW4MEC1V7NJGVD,United Kingdom,Bay,810009,Portsmouth
A01HQP4D1CTQVXVD0ASD61TGDQ7,China,Leroy,BR9 6QK,Shanghai
A01HQP4D1CVVYVTQ770THEF59Z0,United Kingdom,Bayside,40280,Nottingham
A01HQP4D1CW1YKAYPSD4YBHJ0VM,France,Fulton,NY0 5MV,Paris
A01HQP4D1CXPV3FBK0851FWDR2E,United Kingdom,Kings,99-200,London
A01HQP4D1CY3QB1R4616K2AZKGY,United Kingdom,Karstens,945-0812,Southampton
A01HQP4D1CZXXMN26Q1JJ01AEKM,United Kingdom,South,366303,Liverpool
A01HQP4D1D0ZMHFYANSSHBGTM38,Ireland,Mayer,W2 7ZF,Dundalk
A01HQP4D31SEZDJF6Z4H5FGH7A8,Sweden,5th,LO8 3YI,?rebro
A01HQP4D31VTWX9NEQDK91HFBK9,United Kingdom,Monument,N1 2EX,Leeds
A01HQP4D31WF5WAHFDYF1ACRSY5,United Kingdom,Forest,44245-000,Sheffield
A01HQP4D31YVEESHEAE9JS3QB23,India,Artisan,A9 4WK,Hyderabad
A01HQP4D31ZJH6TBKJCCHF293CQ,United States,Monica,YJ52 2HW,Dallas
A01HQP4D321RC1CGNREYZAZJDSD,United Kingdom,Hagan,MP45 2KL,Nottingham
A01HQP4D323Z52DZTP709PH2SK4,United Kingdom,Becker,L4E,Belfast
A01HQP4D324714J38F4KKG09EQX,United Kingdom,Hintze,A8 7YA,Edinburgh
A01HQP4D326R6SZ8B3W5MJANCH8,United States,Fuller,XH7 9OJ,Philadelphia
A01HQP4D327YTF97P3R681TD4CV,United Kingdom,Charing Cross,686008,London
A01HQP4D32861CCBJCMNE8K9PEY,Scotland,Evergreen,20022,Ayr
A01HQP4D32A08R5K05PDE1BJD91,United Kingdom,Waxwing,606093,Portsmouth
A01HQP4D32B5QBCF6DWS74SQ93K,China,Badeau,HH11 2PB,Shanghai
A01HQP4D32C2BPNBPBHBM23PB5R,United Kingdom,2nd,I4 9FR,London
A01HQP4D32EG59TZMETXMFV8Z9J,United Kingdom,La Follette,L1 1PO,London
A01HQP4D32FZ0Z3BCFN748MKM8A,United States,Basil,J4 7CB,San Diego
A01HQP4D32HRCMHKNT2MRZE4RTD,Italy,Burrows,H8 8OM,Bologna
A01HQP4D32JGA62RJXNMXWBGZ1R,United Kingdom,Buena Vista,R4 8CM,Nottingham
A01HQP4D32K0S1FHQPCBHY0A9J3,United Kingdom,Prairieview,IP7 1FH,Portsmouth
A01HQP4D32N8NCHYDV04F64CMA7,United Kingdom,Melby,393479,Cardiff
A01HQP4D32PBAYJ644BK6TN6FAZ,Norway,Miller,49417 CEDEX,Bergen
A01HQP4D32Q1QGMJHQBRNAS3382,United Kingdom,Swallow,K95 3OQ,Edinburgh
A01HQP4D32SYJ8WVCDBFHQS7SW8,Ireland,Westport,H5 5RY,Bray
A01HQP4D32T49504RNGXAT7T8B0,United Kingdom,Delladonna,17600-000,Reading
A01HQP4D32VCA9H4ZE4A13Y732X,United Kingdom,Jana,60686,Belfast
A01HQP4D32XSK20JHS7K5N7KGHP,United Kingdom,Buhler,40053,Bristol
A01HQP4D32YEJYXJ5JX5JJVYB9N,United Kingdom,Packers,06-216,London
A01HQP4D32ZY3JD845ANWS440D4,United Kingdom,Clove,LH9 2LN,Sheffield
A01HQP4D331EK7M5B1NWPSHTPQY,Sweden,Warbler,M69 6UY,Malm?
A01HQP4D332575H31JMAXBTPE68,United Kingdom,Hoard,U96 2SS,Edinburgh
A01HQP4D3334C01Q3Y45JK2YD0Q,Netherlands,Tony,U5 1ND,Rotterdam
A01HQP4D02FB5HC9JT5SDWXY87Y,Netherlands,Commercial,6012,Amsterdam
A01HQP4D02H8S7PR99DHAYTSPYW,China,Cordelia,427920,Shanghai
A01HQP4D02KD8FQ2RK3DZVVYTV6,Germany,Lakeland,VJ3 2GK,Berlin
A01HQP4D02MXNHYB7D2X4QVVGQB,South Korea,Judy,OB6 7HF,Changwon
A01HQP4D02P85425K87XDJVC73K,United States,Beilfuss,396564,San Antonio
A01HQP4D02QJWZNSYXZDHW1P624,Germany,Anniversary,I4 9AJ,Leipzig
A01HQP4D02SZ6PWAEVY3JYBV1Z6,United Kingdom,Pawling,97714,London
A01HQP4D02TEY4WY0BNGQN739T3,Japan,Sauthoff,CM6 5OF,Fukuoka
A01HQP4D02W8E1VCER9PZK5EYDF,United Kingdom,Lawn,O02 8RJ,London
A01HQP4D02XJK1GBVR554E479S8,China,Hanover,HH83 3OQ,Guangzhou
A01HQP4D02ZYRG41QPVRGJQFE1M,United Kingdom,Lien,2435-585,Edinburgh
A01HQP4D030S167MTC5XJB1BR89,United Kingdom,Jay,35000,London
A01HQP4D032H10XF8CZHY888BRW,Netherlands,Fairfield,75780-000,Eindhoven
A01HQP4D033DETE5CABSM4TXKQ4,United Kingdom,Carberry,75710,Manchester
A01HQP4D0358757M868HPZ2E2TS,United Kingdom,Oak Valley,B6 7YU,Leeds
A01HQP4D036PGQN7RAFB69614Z7,United Kingdom,Dennis,6012,Leeds
A01HQP4D038Z600N5A1GBB5476W,Norway,Northview,UV09 4OF,Troms?
A01HQP4D0398W7K020MW4S3HR4S,South Korea,Rigney,396180,Gwangju
A01HQP4D03BNQMMHCAS6QPN1F4W,United States,Northland,152,Jacksonville
A01HQP4D03DRCQV4F36WHYN9PB0,South Korea,Longview,Q47 7AW,Seongnam
A01HQP4D03EA35Y7ZW9DKPR8YAN,United Kingdom,5th,7010,Belfast
A01HQP4D03G7X6SDZHTDCA4GF05,United Kingdom,Sloan,6602,Belfast
A01HQP4D03HXWTXKBCC06S6VWRB,Switzerland,Springview,N93 6OG,Zurich
A01HQP4D03KNJKHB7AZW3KBN9V7,Ireland,Monument,462401,Cork
A01HQP4D03MPZ93W7PB3HWMDDP8,Finland,Kennedy,45213,Tampere
A01HQP4D03P7Q9HHZ9D9K4GD4F2,United Kingdom,Dorton,16201,Birmingham
A01HQP4D03Q1N7S3GBC56S36CF0,United Kingdom,Westerfield,W83 8CS,Bristol
A01HQP4D03RR82620MBV2S8ABFF,Italy,Thierer,H0 3JQ,Naples
A01HQP4D03SZKW8BBMH0M3S2A32,China,Sundown,4108,Shanghai
A01HQP4D03TMA15PW0K2VGV3D10,United Kingdom,Eagan,77004 CEDEX,Leeds
A01HQP4D03V9N1KNQ0EX5EVY094,United Kingdom,Londonderry,811 30,London
A01HQP4D4G98G8T6PN4WJNBF5WA,United Kingdom,Birchwood,4105,Belfast
A01HQP4D4GBX62C6YDRY486ANYB,United Kingdom,Mcguire,EK4 7DB,Leicester
A01HQP4D4GC9Z4HMMKBQC3KRK24,Wales,Linden,37790-000,Cardiff
A01HQP4D4GD5N1CHTEXRGAGWGQ6,Scotland,Maywood,142609,Livingston
A01HQP4D4GFQ1XV0P02QPENBGYG,United States,Cascade,06-413,Indianapolis
A01HQP4D4GGYN00AB3GAYDQ7Q9Y,Belgium,School,294 74,Mons
A01HQP4D4GJ5H9J0ZZCZAJ47W9Z,United Kingdom,Arapahoe,AS67 4BI,London
A01HQP4D4GM16W4RS90ZJ41X79E,United Kingdom,Nova,2305-025,Manchester
A01HQP4D4GPSNBYBYQBM5VEWASR,United Kingdom,Ramsey,43210,Newcastle upon Tyne
A01HQP4D4GRGAXBQS8589HQGAZP,United Kingdom,Northridge,UO95 6DV,Edinburgh
A01HQP4D4GS7DPAA6FYRDB595G1,Netherlands,Delladonna,F8 2UJ,Nijmegen
A01HQP4D4GV6M2GKBH1MC609ZR4,United States,Sage,Y02 7BN,Phoenix
A01HQP4D4GX6V8MGMYJ7A6AAY83,United Kingdom,Little Fleur,4325,London
A01HQP4D4GZMTCNSJ0P7GW153PK,Norway,La Follette,Z6 2EX,Oslo
A01HQP4D4H0XQAHDTMHCFM2TNJJ,Denmark,Sutteridge,M0 0QU,Odense
A01HQP4D4H29Z6TYATCN9XQDTKJ,Scotland,Main,929-0417,Hamilton
A01HQP4D4H4B8JF2DE0QZMZRDNB,Wales,Packers,94675 CEDEX,Barry
A01HQP4D4H59PYWEN76C44HDSMK,China,Welch,EL34 7YR,Chengdu
A01HQP4D4H78TVBBZ0YX5ZB6VK7,United Kingdom,Jana,SC7 4WZ,Nottingham
A01HQP4D4H9QJ1D1NGSHAPCFEYF,United Kingdom,Havey,YO95 5TI,Leicester
A01HQP4D4HBCDMG7ZF5D5FPAFD1,United Kingdom,Eagan,U8 9XE,London
A01HQP4D4HCPW2APFEVXXHHFTC2,Belgium,Johnson,K86 9IM,Brussels
A01HQP4D4HDE8MFM8NRBQ8H7VK1,China,Di Loreto,PE76 2MY,Shanghai
A01HQP4D4HE4WJ4D9ZW00KJPGF3,United Kingdom,Weeping Birch,352835,London
A01HQP4D4HFCRC5DTBD3243ZHAF,Denmark,Little Fleur,1871,Randers
A01HQP4D4HGTWGV32DZMR4Z0TXY,United Kingdom,Delladonna,MY1 3TK,London
A01HQP4D4HHZNZXFAVV5T8J57E9,Italy,Di Loreto,197-0011,Bari
A01HQP4D4HJ9R8KJRS0XNWJT40F,United Kingdom,Annamark,OH0 4RI,Sheffield
A01HQP4D4HKKPTE8PTFQETWW5A7,United Kingdom,Crest Line,QM90 4WF,Edinburgh
A01HQP4D4HMZ21Z3G8XTE4JESXR,United Kingdom,Ridgeway,QF96 1GR,Manchester
A01HQP4D4HNF6FJDW2G2GFX10WE,Switzerland,Sundown,A7 1NH,Lugano
A01HQP4D46VN2WPVRE7WMN4WZCR,Scotland,Washington,11-015,East Kilbride
A01HQP4D4709BETY52JMDBQF3HP,Scotland,Northfield,GT1 7IF,Dundee
A01HQP4D474FYH54NFT5B0KXJAK,United Kingdom,Vera,184 70,Edinburgh
A01HQP4D478TA6HZGGGVHZR7950,United States,Meadow Vale,589 00,New York City
A01HQP4D47BSMFF80AHBJEQD8WG,United Kingdom,Shasta,K94 7TI,Birmingham
A01HQP4D47FWAPR1R0KA103FGE6,Switzerland,Leroy,CB0 7ZC,Biel/Bienne
A01HQP4D47M4EGB6ZK7MRWCTVWC,Northern Ireland,Mifflin,FH0 3SR,Ballymena
A01HQP4D47QFY2QSX1D38BCPZ88,China,2nd,W42 5DW,Hangzhou
A01HQP4D47T7SQX66VW892DH8GZ,United Kingdom,North,23110,Glasgow
A01HQP4D47XDWSFAHPX6DSFPJXX,United Kingdom,Stoughton,U93 8OJ,Southampton
A01HQP4D47Z1MR811NRRXW3WXYQ,United Kingdom,Eastlawn,10370,London
A01HQP4D482JVQPQA2SNQ4PV35Z,Wales,Beilfuss,RK11 4EE,Cwmbran
A01HQP4D486RZVY7XB4DDHB74BP,United Kingdom,Calypso,ZW7 1JU,Reading
A01HQP4D4890K3CWQW2JSP46DSQ,Denmark,Dottie,31205,Frederiksberg
A01HQP4D48BAGJW8D5AB6BT9JX4,United Kingdom,Arapahoe,FW1 8KA,Coventry
A01HQP4D48E18CBV2N8MQKWGGZG,United Kingdom,Schurz,N20 0EQ,London
A01HQP4D48HPEF24AA6QEWZFD9P,United States,Toban,5613,San Antonio
A01HQP4D48MAXVT5CKW9FR9QPGJ,United Kingdom,Caliangt,7104,London
A01HQP4D48P0WK5FFKZC5HG0Z24,United Kingdom,Hallows,249144,London
A01HQP4D48SMDN1VP80NW5GX8E5,United Kingdom,West,SD79 2GU,Edinburgh
A01HQP4D48VW2P6SRCCAKS31Z4T,Ireland,Reinke,N1 8WT,Limerick
A01HQP4D48XWWENVPASC5GP7WK3,Belgium,Paget,CJ03 2GZ,Charleroi
A01HQP4D48ZRNKGJT14VZ7BYFMB,United Kingdom,American Ash,86983 CEDEX,Southampton
A01HQP4D491T0HS57YH9X8320YF,United Kingdom,Mesta,40270,Sheffield
A01HQP4D4931WQW1VV010C58PQ3,Spain,Loomis,187625,Barcelona
A01HQP4D4947EJ8QFEWDXAAVHF2,France,Trailsway,GG4 9PV,Lille
A01HQP4D496M29G2D9YQ3TF6EYX,China,Garrison,U9 8AE,Xi'an
A01HQP4D498AFMAV0YJ1Q3GFQN5,China,Dexter,107 07,Changchun
A01HQP4D499PPYZ1PTYMKQDZ940,United Kingdom,1st,1333,Liverpool
A01HQP4D49BSPNAEK8FVKYEGS56,South Korea,Leroy,TG08 5WZ,Daejeon
A01HQP4D4RKE9AK2MBE83DCGABN,Spain,Pierstorff,W3 9CI,Valencia
A01HQP4D4RP18XKMHM8KX3V94CY,United Kingdom,Moose,K0 3IO,Manchester
A01HQP4D4RS8548KC13M6ET1SXK,United Kingdom,Eagle Crest,AU0 6EQ,London
A01HQP4D4RVWKP91SDB8V7YT5AR,Italy,Dorton,1239,Bologna
A01HQP4D4RXS8BXH6QEKZBVFVZK,United Kingdom,Pawling,238411,Newcastle upon Tyne
A01HQP4D4RZ9VAZ786VAGZ60JT5,United Kingdom,7th,QD2 6PL,Reading
A01HQP4D4S1V9ANV9E6YE3GGF1E,United Kingdom,Daystar,94273,Belfast
A01HQP4D4S35370YXJ2RDS976XH,Northern Ireland,Parkside,939-1351,Bangor
A01HQP4D4S51RPMKJRPN8V7R8TP,Austria,Holmberg,4920-070,Vienna
A01HQP4D4S77NBW0SBN4FRP51RH,United States,Acker,60604,San Antonio
A01HQP4D4S91GVAJKD9RYBGZJEA,United Kingdom,Glacier Hill,V52 6JC,Liverpool
A01HQP4D4SCZJ5T2P2X23NZ63Z2,Portugal,Lyons,84-353,Coimbra
A01HQP4D4SE7KWEREW2R1BQKVZ3,United Kingdom,Hallows,T23 9HT,Coventry
A01HQP4D4SGTNSSW5H7QZRG9YRQ,United States,Muir,Z8 8MU,Houston
A01HQP4D4SJTAE97PSM163B3NAW,Finland,Cottonwood,N6 4XV,Pori
A01HQP4D4SMRR63VNR39K9RQBF7,United States,Hollow Ridge,V35 4SL,San Jose
A01HQP4D4SP28ZRS1XKW8T1605K,United Kingdom,Carpenter,705079,Leeds
A01HQP4D4SRJP7MW21DM9PQ280C,Wales,Katie,J3 9OD,Port Talbot
A01HQP4D4ST97NRPJT6VF1HPWR9,Netherlands,Mendota,25215 CEDEX,Utrecht
A01HQP4D4SWZYEDVVFAFHRX78Q2,United Kingdom,Hansons,1703,Reading
A01HQP4D4SZBQ3NC59TMMKYHWJD,United Kingdom,Eastlawn,HV79 5DK,Sheffield
A01HQP4D4T1Z9775QX2PK72A3ZY,France,Parkside,GH49 3GI,Bordeaux
A01HQP4D4T3S80JMFAZGV5Y0V98,United Kingdom,Maywood,398032,Sheffield
A01HQP4D4T57VDC9H171CZCNPQ0,Spain,Magdeline,UL0 1HW,Las Palmas de Gran Canaria
A01HQP4D4T72D93SP2CWMS108TW,Portugal,Waubesa,7743,Set¨²bal
A01HQP4D4T94BNQDQ3VEA14FPMF,United States,Melrose,U35 6CT,Denver
A01HQP4D4TAGSGNP9DD4CAEE6KP,United Kingdom,Artisan,N3 5DG,Liverpool
A01HQP4D4TC2MQRAM3JA8TB4XFH,United Kingdom,Prairieview,H11 5GC,London
A01HQP4D4TDHVSXDN0P034HTAJX,United Kingdom,Brickson Park,CM88 2BL,Nottingham
A01HQP4D4TFNYVTF79936NQDWTK,United Kingdom,Westend,542 42,Manchester
A01HQP4D4THWKCB92P4E9QFR5DG,United Kingdom,2nd,14040 CEDEX 4,Birmingham
A01HQP4D6DDD2NN7RS5DCFS4397,United Kingdom,Steensland,U92 1PO,London
A01HQP4D6DEYRDT0ZJYCM2V5Z2Z,United Kingdom,Beilfuss,32-503,Aberdeen
A01HQP4D6DFC9DMNVAAS9N199GF,Belgium,Green,627439,Ghent
A01HQP4D6DGY6XKYS1AHV3CJG7E,United Kingdom,Chive,RH5,Liverpool
A01HQP4D6DHXYP83DFSWG71MEMV,United Kingdom,Bobwhite,368540,Edinburgh
A01HQP4D6DJWKKWCKY4JWDEYD82,United Kingdom,Bluestem,64-720,Portsmouth
A01HQP4D6DKA7K2AQ25E7V0N220,United Kingdom,Beilfuss,C65 3AL,Leicester
A01HQP4D6DM3XMSKKQQR6A1M73A,Wales,South,T52 7XV,Wrexham
A01HQP4D6DNBPYTXFD4BYXE3QDE,China,Packers,LL15 9JG,Shanghai
A01HQP4D6DPAX354JJDJS0JQBSB,United States,Anniversary,42-793,Denver
A01HQP4D6DQ7NDGS9EJKV9WTRN8,United Kingdom,Schiller,3776,Manchester
A01HQP4D6DRGAQDVP7E606BWYWB,United Kingdom,Riverside,90036,London
A01HQP4D6DSWHFWK4QX3266PVKM,France,Sherman,Q44 0OM,Paris
A01HQP4D6DT0DKBFFMNHGKNAN26,Netherlands,Fordem,05-520,Tilburg
A01HQP4D6DVT5MVSPHY9QADHZVF,United Kingdom,Farmco,21901,Leeds
A01HQP4D6DW43Q5Q8HT5DJBKDMA,United Kingdom,Basil,Q3 5BL,Sheffield
A01HQP4D6DXTW8PDXQYYHKNGE6E,United Kingdom,Grover,C1 7DN,London
A01HQP4D6DY4HWRNDJFTAP9VKYY,Switzerland,Shelley,QU51 4WX,Basel
A01HQP4D6DZ0B9FDGM7ZCSBM8V8,China,Cascade,C3 5PM,Beijing
A01HQP4D6E0W4N6ER60VZ8QW87X,United Kingdom,Summerview,39200-000,London
A01HQP4D6E1BJ2SJT42G57BYGJ9,China,Bultman,6414,Chengdu
A01HQP4D6E2166HAB08DPAD9J8F,South Korea,Bashford,26-070,Incheon
A01HQP4D6E3Z7YRKKD1N618HRJ5,Belgium,Ridgeway,15250,Antwerp
A01HQP4D6E4P2ZHQWQDWF0V6X7S,United Kingdom,Ohio,841 01,Edinburgh
A01HQP4D6E5JHR9RWFY2RB64DPN,France,Grim,4045,Strasbourg
A01HQP4D6E63DK59449JKHZRPH7,Iceland,Lindbergh,OP76 6YV,Hafnarfj?r?ur
A01HQP4D6E7GESWDFMJ67XPM2S0,United States,Donald,97102 CEDEX,Los Angeles
A01HQP4D6E8RHJRKPRBAQTTJG1J,United Kingdom,West,U0 9VS,Reading
A01HQP4D6E96VYZVHKBH1CY7MTT,United Kingdom,Carey,427265,Coventry
A01HQP4D6EAQ5KZV8218WBEQMB4,United Kingdom,Dennis,GH97 3RT,Southampton
A01HQP4D6EBMA6FEY5RZW3CKBD7,United Kingdom,Northland,GB0 1LG,Sheffield
A01HQP4CZQNTPTTCBVMCTRTYZ6N,United Kingdom,Ridgeview,GJ49 2GX,Edinburgh
A01HQP4CZQQHERND0CVAHFB450N,Denmark,Lakewood Gardens,H98 9PG,Esbjerg
A01HQP4CZQSAC6T2D6YYX8EBGEK,United Kingdom,Ilene,D90 6QK,Hull
A01HQP4CZQV5AT75EZZF8C9D7WC,United Kingdom,Barnett,DF80 8NH,London
A01HQP4CZQWW89SX964NKJ28E8F,United Kingdom,Fair Oaks,ZQ9 6EQ,Manchester
A01HQP4CZQYFPBMK763BTDBQFC7,United Kingdom,Granby,242760,London
A01HQP4CZR064RFZW59K3WYVRFR,Germany,Emmet,X44 4KQ,Leipzig
A01HQP4CZR1X98TGWV966EMDS71,Scotland,Clyde Gallagher,56017,Kilmarnock
A01HQP4CZR3WRKYRDP3Z3XWSG42,United States,Riverside,270-1108,New York City
A01HQP4CZR5D8Y9WQV56MZ08H4J,Sweden,Melby,2701,V?ster?s
A01HQP4CZR65N0TAXGD1B44C4D2,Switzerland,Washington,2435-362,Biel/Bienne
A01HQP4CZR8H55JVBC96KTXYN2J,United Kingdom,Colorado,WK3 5RQ,Edinburgh
A01HQP4CZRAKNBMPC2T19PWMTF2,Northern Ireland,Michigan,9800,Newtownards
A01HQP4CZRB1J2S63E4GQXHWNB5,United Kingdom,Almo,B8 2DV,Manchester
A01HQP4CZRD490AR0SGWFW21BRY,United States,Jana,IY2 8JP,San Francisco
A01HQP4CZREA0PTD94SXP649XNZ,Portugal,Barnett,461677,Vila Nova de Gaia
A01HQP4CZRGF7ESTBAX4QJAYH5V,United Kingdom,Blue Bill Park,MX63 7JE,Glasgow
A01HQP4CZRJP5E4P3CMN6FD2DP1,Spain,Prairie Rose,NF5 2XS,Las Palmas de Gran Canaria
A01HQP4CZRK05AAAV1MHDDF2VNK,China,Harper,5102,Shanghai
A01HQP4CZRNK96Z7JETA3GYEC14,United States,Ronald Regan,793 26,"Washington, D.C."
A01HQP4CZRPQAT66V0S3ZPQX66H,United States,Ridge Oak,79575,Los Angeles
A01HQP4CZRQM3906AZYNEJDQ6WA,United Kingdom,Nova,2305,Manchester
A01HQP4CZRR1RVKB0AF251YYYXQ,Japan,Del Sol,FH3 0JH,Yokohama
A01HQP4CZRS75B4X3F0N7VTQKPT,United Kingdom,Parkside,JO13 5BA,Manchester
A01HQP4CZRVG3332J9V0HN1FCGA,China,Fordem,455051,Beijing
A01HQP4CZRXFZ5A1FEQCZENWAD2,United Kingdom,Northridge,186793,Southampton
A01HQP4CZRZFR4DQH8XG95WJ2VY,United Kingdom,Dixon,7029,Birmingham
A01HQP4CZS0YZ480ZCZ69S40N3M,United Kingdom,Armistice,S5 2ZK,London
A01HQP4CZS2X92V32176A7S82HK,United Kingdom,Vera,6819,London
A01HQP4CZS4CJQBWAMSZ0FKV135,United Kingdom,Aberg,D23 5OV,Newcastle upon Tyne
A01HQP4CZS5X7K62TYSWB4ZHAHQ,United Kingdom,Linden,5510,Nottingham
A01HQP4D50054KJBFVMBWNJD917,Sweden,Heffernan,366311,Uppsala
A01HQP4D502C9CJ3MA0Y1VV4DJ5,China,Katie,B30 7FB,Shenzhen
A01HQP4D5037FJ3QPHYNV2S9G0J,United Kingdom,Kropf,LZ88 2BF,Belfast
A01HQP4D504Y2WNKBWS6MR8K2AY,United Kingdom,David,5850,London
A01HQP4D505V35X2K0GQYQHT4EC,United Kingdom,Kropf,KI7 0BR,London
A01HQP4D506P3M3SH8Z89NSVCY8,United Kingdom,Del Sol,E5 4EL,Leeds
A01HQP4D507SN9XDAC1TAP0MBG5,China,Helena,DH0 9TP,Chongqing
A01HQP4D508CF0101S7G6MRCBFE,United Kingdom,Florence,9845,Liverpool
A01HQP4D509TSWMP49TTBJ56KZD,United Kingdom,Carpenter,N71 7OW,Hull
A01HQP4D50AN05XSFM9JHA05RZQ,United Kingdom,Carey,3505-157,London
A01HQP4D50B0513DMKB6A2YKEG8,United States,Kings,89-525,Chicago
A01HQP4D50CF0Y1KC53PXF22QPX,United States,Tomscot,5829,Fort Worth
A01HQP4D50D4ZPJHRGK35D351B0,United States,Fremont,5090-017,San Diego
A01HQP4D50EBTE0PQQF0W0X96RV,France,Stuart,30132,Montpellier
A01HQP4D50FX848VXWZKGKA1AF4,United Kingdom,Donald,UY90 5MH,Leicester
A01HQP4D50GNE125JKRHY1GRJE3,United Kingdom,Fairfield,94129 CEDEX,Reading
A01HQP4D50J5323ZSP9Z6H4R0KT,India,6th,RG79 7PL,Surat
A01HQP4D50MZYVQ6ME00EM3E6VE,United States,Leroy,7300,"Washington, D.C."
A01HQP4D50NK7FX94PHGVXNXHDM,United Kingdom,Scoville,456510,Manchester
A01HQP4D50QE9M5XYGKCBZ9JW8Q,United Kingdom,Union,645 94,London
A01HQP4D50SWKJKGEFDN2R2DFCK,Sweden,5th,1150,Norrk?ping
